"name";"website";"phone";"address";"city";"state";"zip";"stars";"country";"details";"logo_url";"kids_program_url";"kids_program_detail";"woman_only_program_url";"woman_only_program_detail";"other_programs";"pricing";"schedule_url";"business_hour";"head_professor";"special_offer";"email";"facebook_url";"youtube_channel";"video_url";"awards";"multiple_locations";"id";"FederationAbbr";"team";"CountryAbbr";"source ID"
"Nova União Galo Preto";"https://nova-uniao-galo-preto.negocio.site/";" + 55 45 99146-4513";"Av. Araucária, 716, Vila A";"Foz do Iguaçu";"PR";"85860-000";;"Brasil";;;;;;;;;;;"Andre Luiz Candido da Silva";;;"https://www.facebook.com/novauniaogalopreto/";;;;0;;"CBJJ";;"BR";7063
"Santos Jiu-Jitsu";;;"Rua Cacique 52";"Foz do Iguaçu";"PR";"85869-150";;"Brasil";;;;;;;;;;;"Carlos Aldair Medeiros dos Santos";;;;;;;0;;"CBJJ";;"BR";7576
"Fs Team BJJ";;;"Av. Julio Assis Cavalheiro n: 22, 2 andar - Loja Eletro Beltrao";"Francisco Beltrão";"PR";"85601-000";;"Brasil";;;;;;;;;;;"Fabio José de Oliveira";;;;;;;0;;"CBJJ";;"BR";7549
"Be One Jiu-Jitsu Academy";;;"Rua Tenente Camargo n: 1385/24, Centro";"Francisco Beltrão";"PR";"85605-090";;"Brasil";;;;;;;;;;;"Fabio José de Oliveira";;;;;;;0;;"CBJJ";;"BR";2122
"Gracie Barra Francisco Beltrão";"https://www.graciebarrabeltrao.com.br/";" + 55 46 3035-0400";"Travessa Frei Deodato n: 77, bairro: Centro";"Francisco Beltrão";"PR";"85601-620";;"Brasil";"Em uma vida dedicada ao crescimento e desenvolvimento do Jiu-Jitsu e da Gracie Barra, o Mestre Carlos Gracie Jr. sempre orientou seus esforços e ações baseado em princípios e valores. Entre os valores mais presentes em tudo que o Mestre Carlinhos construiu se destacaram-se irmandade, expansão e integridade. Dito de forma simples por ele mesmo: “Minha vida é dedicada ao Jiu-Jitsu. Meu objetivo sempre foi construir uma irmandade para liderar a expansão do Jiu-Jitsu, respeitando sempre a essência da nossa arte. Meus alunos são uma extensão da minha família. Eu quero que cada um dos meus alunos desenvolva o seu potencial como ser humano, ajudando na expansão do Jiu-Jitsu. Devemos fazer isso honrando as tradições e os esforços daqueles que vieram antes de nós.”- Carlos Gracie Jr.";"https://static.wixstatic.com/media/f2437f_f097632d85bc48d98eb79b7242e4fd08~mv2.png/v1/fill/w_204,h_83,al_c,q_85/f2437f_f097632d85bc48d98eb79b7242e4fd08~mv2.webp";;;;;;;"https://www.graciebarrabeltrao.com.br/horarios";;"Alvaro Alexandre Francescon";;;"https://www.facebook.com/gbarrabeltrao/";"https://www.youtube.com/user/alvaroafrancescon";"https://youtu.be/VKn4aDj5uoI";;0;;"CBJJ";;"BR";7453
"Matsushita Jiu-Jitsu";;" + 55 43 99646-7884";"Rua Prudente de Morais n: 245, Champagnat";"Londrina";"PR";"86062-120";;"Brasil";"Disciplina, Humildade, Honra, Respeito, Coragem, Perseverança, Confiança, Auto Defesa, Qualidade de Vida, entre outros são ensinados através da filosofia do Jiu-Jitsu.";;;;;;;;;;"Thiago Massao Matsushita";;;"https://www.facebook.com/matsushita.Jiujitsu/";;;;0;;"CBJJ";;"BR";6756
"Cristyan Bernardino Evolução Jiu-Jitsu";"https://evolucaojiujitsu.com/";" + 55 44 9912-1244";"Rua Luiz de Camões n: 135 Zona 01";"Maringá";"PR";"87013-210";;"Brasil";"A Escola de Artes Marciais Evolução Jiu-Jitsu, foi fundada em 2012 pelo professor Cristyan Devanir Martins, faixa preta 3⁰ grau, naquele mesmo ano iniciou um processo de especialização em treinamento infantil, além das categorias Juvenil e Adulto, assim, sendo convidado em 2015 a lecionar no Centro Português de Maringá, estado do Paraná, parceria esta que transformou a escola em um ambiente familiar voltado ao treinamento corporal baseado na defesa pessoal e na arte suave.";"https://evolucaojiujitsu.com/wp-content/uploads/2020/03/JiuJitsuFavIcon.png";;;;;;;"https://evolucaojiujitsu.com/#horarios";;"Cristyan Devanir Martins";;"cristyan_bernardino@hotmail.com";"https://www.facebook.com/Evolu%C3%A7%C3%A3o-Jiu-Jitsu-615737711795555/";"https://www.youtube.com/channel/UClwQiANk5-BV0qWP6aGKBeQ";"https://youtu.be/x-NOvlpff60";;0;;"CBJJ";;"BR";6758
"Gracie Barra Paranaguá";;" + 55 41 98482-2557";"Rua Prefeito Roque Vernalha, n. 309 (Comércio), Vila Paranaguá";"Paranaguá";"PR";;;"Brasil";;;;;;;;;;;"Rodrigo Fajardo";;"michellylima1410@gmail.com";"https://www.facebook.com/limachelly/";;;;0;;"CBJJ";;"BR";7329
"Dutra Jiu-Jitsu";"https://dutrajiujitsu.com.br/";" + 55 46 99922-6260";"Rua Argentina, 484, Jardim das Américas";"Pato Branco";"PR";"85502-040";;"Brasil";"Dutra Jiu Jitsu - Escola de artes marciais especializada em Jiu Jitsu, registrada na IBJJF e CBJJ, fundada em Junho de 2019. Contamos com profissionais capacitados , professores experiêntes para promover o a performance e o bem estar de seus alunos. Nosso comprometimento é entregar um serviço de 1ª qualidade, agregando ética, cidadania e profissionalismo. Oferecemos métodologia atualizada e ambiente acolhedor para a prática dos treinamentos.";"https://dutrajiujitsu.com.br/wp-content/uploads/2020/01/logo-2.png";;;;;;;;;"Plábito Silva Dutra";;"adm@dutrajiujitsu.com.br";"https://www.facebook.com/dutrajiujitsu/";"https://www.youtube.com/user/patodutra/";"https://youtu.be/UhSOACZ2Weo";;0;;"IBJJF, CBJJ";;"BR";6998
"Zych Jiu-Jitsu";;;"R. Araucária, 969-1085 - Santa Terezinha";"Pato Branco";"PR";"85501-160";;"Brasil";;;;;;;;;;;"Ricardo Zych Rodrigues";;;"https://www.facebook.com/ZYCHJIUJITSU/";;;;0;;"CBJJ";;"BR";7220
"Gracie Barra Ponta Grossa";"https://jiujitsupontagrossa.com/";" + 55 42 99134-6838";"Rua Contenda n: 181, Sala 6 - Vila Estrela";"Ponta Grossa";"PR";"84050-330";;"Brasil";;;;;;;;;;;"Rodrigo Fajardo";;"graciebarra.pgpr@gmail.com";"https://www.facebook.com/graciebarrapg/";;;;0;;"CBJJ";;"BR";7534
"Urutum Jiu-Jitsu";;;"Rua Rio Taquari n: 53/02, Jd. São Pedro";"Quatro Barras";"PR";;;"Brasil";;;;;;;;;;;"Silvio Rodrigues de Souza";;;;;;;0;;"CBJJ";;"BR";7030
"Gile Ribeiro Borda do Campo";;" + 55 41 99937-5445";"Rua Caçador n: 590, 1 andar - Bairro: Borda do Campo";"São José dos Pinhais";"PR";"83075-120";;"Brasil";;;;;;;"Muay Thai";;;;"Celso Pereira Junior";;"jrbarjiu@hotmail.com";"https://www.facebook.com/CtgrJuniorbalao/";;;;0;;"CBJJ";;"BR";7172
"WCF Jiu-Jitsu Paraiba";;;"Rua Isaac Catão n: 530, Jardim Paulistano";"Campina Grande";"PB";;;"Brasil";;;;;;;;;;;"Wilson Camara Filho";;;;;;;0;;"CBJJ";;"BR";5924
"ZR Team Esperança PB";;;"Rua Euclides Brandão S/N, Centro";"Esperança";"PB";"58135-000";;"Brasil";;;;;;;;;;;"Tony Herbet Alves da Silva";;;"https://www.facebook.com/Zrteamesperanca_pb-399850554139949/";;;;0;;"CBJJ";;"BR";6560
"Halavanca BJJ Brasil";"https://halavancabjj.com/";;"Rua Cel. Souza Lemos n: 167-1, Bairro: Miramar";"João Pessoa";"PB";"58043-190";;"Brasil";"HALAVANCA Jiu-Jitsu is an innovative martial arts and fitness program, designed to challenge and elevate the individual's mental and physical abilities in a safe and welcoming environment, setting the stage for a bright future. Our curriculum integrates physical education and self-defense techniques with conditioned and skill-oriented exercises, designed to improve coordination, motor skills, agility and flexibility. Mutual respect and cooperation are encouraged, as well as socialized and, of course, fun. Brazilian Jiu-jitsu is an exciting and powerful martial art, known for its dynamic techniques. The HALAVANCA method realizes that each being has different physical abilities. Size and strength vary with each individual. Once an individual has acquired a solid foundation in the basics, HALAVANCA Jiu-Jitsu's program will increase physical capabilities and maximize their self-defense skills. Our program is related to character education. HALAVANCA Jiu-Jitsu is not only interested in teaching self defense, it is interested in the complete personal development of each student and their individual attention is a characteristic of each and every class, allowing all our students to progress quickly and confidently. The program teaches the importance of a strong character, leadership and good values. Our teaching style is basically a positive mental attitude and setting high goals. HALAVANCA Jiu-Jitsu promises to give students the highest professional level, good supervision and excellent quality classes available. Mission - HALAVANCA Jiu-Jitsu will teach in a way that will help everyone to develop in different ways, such as moral, civic, behavior, critical and healthy thinking, in addition to increasing their level of confidence and increasing their level of physical conditioning. Values ​​- The values ​​of Academia HALAVANCA de Jiu-Jitsu are the education of character, respect, integrity, discipline, self-control, confidence and physical fitness.";"https://halavancabjj.com/logo.svg";;;;;;;;;"Helder Medeiros da Silva";;"halavancabjj@halavancabjj.com";"https://www.facebook.com/halavanca";"https://www.youtube.com/channel/UCEYpU-TZljtjcX7njpI_cmw";"https://youtu.be/CRpCQocg4LE";;0;;"CBJJ";;"BR";4389
"Rilion Gracie Paraíba";;" + 55 83 98873-7498";"Rua João Ramalho Leite, 219, Castelo Branco III";"João Pessoa";"PB";"58050-620";;"Brasil";;;;;;;;;;;"Laudy Nixon Nogueira Fernandes";;;;"https://www.youtube.com/user/laudynixon2011";"https://youtu.be/lWWXhGrIpYk";;0;;"CBJJ";;"BR";7574
"Box 79 Fight Escola de Lutas";;;"Rua São João, 340 - Centro";"Mamanguape";"PB";"58280-000";;"Brasil";;;;;;;;;;;"Luciano Valentim da Silva";;;;;;;0;;"CBJJ";;"BR";7743
"Pablo Forlan Brazilian Jiu-Jitsu";;;"Rua Pedro Peixoto n: 334 Térreo, Jardim Queiroz";"Patos";"PB";"58704-150";;"Brasil";;;;;;;;;;;"Pablo Forlan Claudino Amorim";;;;;;;0;;"CBJJ";;"BR";6745
"WCF Santa Rita";;;"Rua Fernando Cavadine n: 32, Sol Nascente - Tibire II";"Santa Rita";"PB";;;"Brasil";;;;;;;;;;;"Wilson Camara Filho";;;;;;;0;;"CBJJ";;"BR";7342
"STRG PE BJJ Team";;;"Rua Lourenço Correia de Melo n: 304, Pedrosa`s Fight";"Gravatá";"PE";"55641-140";;"Brasil";;;;;;;;;;;"Wallas Pedroza Felix";;;;;;;0;;"CBJJ";;"BR";7005
"Gracie Barra Ipojuca-PE";;" + 55 81 99890-7548";"Rua 12 número 101, Loteamento Novas Conoas";"Ipojuca";"PE";;;"Brasil";"Organizado como um Time, Lutando como uma Família.";;;;;;;;;;"Glaubert Gomes de Assis";;;"https://www.facebook.com/gbipojuca/";"https://www.youtube.com/channel/UCxlRD7RB5AFBztlgBIrYwWA";"https://youtu.be/OUwGCGq_iNc";;0;;"CBJJ";;"BR";7608
"Jefferson Urquiza Team";;;"Rua Dulce Vita 60, Porto de Galinhas";"Ipojuca";"PE";"55590-000";;"Brasil";;;;;;;"MMA, Muay Thai, Krav Maga";;;;"Jefferson José Urquiza Tenorio";;;"https://www.facebook.com/Jefferson-Urquiza-Team-844682795630714/";;;;0;;"CBJJ";;"BR";5029
"Cancão Fight Team";;;"Rua India 191 - B Casa, Sucupira";"Jaboatão dos Guararapes";"PE";"54280-480";;"Brasil";;;;;;;;;;;"André Carlos Barbosa da Silva";;;;;;;0;;"CBJJ";;"BR";4867
"GF Team Pernambuco";;;"Rua Um 9A, Cajueiro Seco";"Jaboatão dos Guararapes";"PE";"54330-040";;"Brasil";;;;;;;;;;;"Emerson de Lima Martins";;;;;;;0;;"CBJJ";;"BR";5195
"LWM Jiu-Jitsu/PE";;;"Rua Ilha Bela n: 100, Barra de Jaugada";"Jaboatão dos Guararapes";"PE";"54495-070";;"Brasil";;;;;;;;;;;"Derval Luciano Rêgo";;;;;;;0;;"CBJJ";;"BR";6183
"Zebu Team";;" + 55 81 98341-6517";"Rua das Carolinas n: 117, 2 andar - Bairro: Candeias";"Jaboatão dos Guararapes";"PE";"54430-340";;"Brasil";;;;;;;;;;;"Thompson Clay Coelho Bastos";;;"https://www.facebook.com/zebuteampe/";;;;0;;"CBJJ";;"BR";6102
"Academia AMA de Jiu-Jitsu";;;"Rua Presidente Vargas n: 142, Prox. ao Supermercado Soberano. Bairro: Paratibe";"Paulista";"PE";"53415-260";;"Brasil";;;;;;;;;;;"Luis Alberto da Silva";;;;;;;0;;"CBJJ";;"BR";6554
"The Brothers BJJ Pernambuco";;" + 55 81 98740-4129";"Rua General Castelo Branco 12 , Arthur Lundgren 1";"Paulista";"PE";"53415-210";;"Brasil";;;;;;;;;;;"Robson Mendonça da Luz";;;"https://www.facebook.com/Academia-The-Brothers-Jiu-Jitsu-536923013028590/";;;;0;;"CBJJ";;"BR";5225
"Academia Jam Lobo Jiu-Jitsu";;" + 55 81 99161-3183";"Rua Aurora Caçote 236 Casa, Areias";"Recife";"PE";"50875-150";;"Brasil";;;;;;;;;;;"Derval Luciano Rêgo";;"jamlobo.jiujitsu@gmail.com";"https://www.facebook.com/Academia-Jam-Lobo-720507618319585/";;;;0;;"CBJJ";;"BR";4476
"Academia Rostan Lacerda";;" + 55 81 98670-5464";"Rua Augusto Calheiros n: 62";"Recife";"PE";"50770-250";;"Brasil";"Associação voltada para pratica de jiu-jitsu, submission, defesa pessoal e treinamento para capacitação na área de segura. Ensino e prática do Jiu-Jitsu, submission, defesa pessoal e treinamento para capacitação na área de segurança. Com 36 anos de prática e ensino nas artes marciais. Contribuindo para a socialização dos cidadãos, trabalhando a disciplina, o respeito, o auto-controle e a fraternidade. Composto por alunos de vários segmentos da sociedade, abrangendo o sexo masculino e feminino, com idades variadas. Sempre focando a autoestima do atleta, resgatando valores éticos e profissionais.";;;;;;;;;;"Rostan da Silva Lacerda";;"pentagono.rl@gmail.com";"https://www.facebook.com/AJJRL/";"https://www.youtube.com/channel/UCGXR_LC2MM33lBOV4Qq82-g";"https://youtu.be/aiyA_fYyEZc";;0;;"CBJJ";;"BR";864
"Broa BJJ";;;"Rua Jorge Couceiro da Costa Eiras n: 50 apt 102, Boa Viagem";"Recife";"PE";;;"Brasil";;;;;;;;;;;"Felipe Thiago Pereira da Silva";;;;;;;0;;"CBJJ";;"BR";6842
"Gracie Barra Boa Viagem";"https://www.gbboaviagem.com.br/";" + 55 81 98110-4573";"Rua Coronel Anizio Rodrigues Coelho, 253 - Boa Viagem";"Recife";"PE";"51021-130";;"Brasil";"Iniciada em 07 de Abril de 2017, a GRACIE BARRA BOA VIAGEM teve seu início com o professor Leeds Ponsoni, que viu a oportunidade de compartilhar os benefícios do Jiu-Jitsu na sua cidade natal, seguindo a filosofia do Mestre Carlos Gracie Jr. que é um homem à frente do seu tempo e fundador da maior equipe de Jiu-Jitsu do mundo, a GRACIE BARRA. Em 2018, o professor Leeds Ponsoni, organizando um projeto de aperfeiçoamento no CANADÁ, com migração imediata para CALIFÓRNIA - EUA, entendeu a necessidade de compartilhar a missão de manter o legado vivo em Recife-PE, e percebeu que Vitor Vachala, um de seus alunos, tinha o perfil necessário seguir seu projeto e adicionar o quadro societário da GRACIE BARRA BOA VIAGEM. Após alguns meses sob a administração de Vitor Vachala e comando técnico do professor Rodrigo Mendes, a capacidade física de alunos foi esgotada, havendo a necessidade de mudança para um espaço maior. Nesse momento houve a decisão de reabertura no quadro societário, para que a GRACIE BARRA BOA VIAGEM pudesse ganhar ainda mais força, com isso, recepcionando o professor Rodrigo Mendes e o professor Fabrício Bartholo, completando dessa forma o time atual de sócios/líderes da GRACIE BARRA BOA VIAGEM.";"https://www.gbboaviagem.com.br/images/gbbvlogo.png";"https://www.gbboaviagem.com.br/index.php?pagina=programa-criancas-adolescentes";"Crianças e adolescentes de todos os níveis e habilidades se beneficiarão das aulas de Jiu-Jitsu na Gracie Barra em Boa Viagem, Recife - PE. Nosso Programa Gracie Barra Kids foi desenvolvido para ensinar a autodisciplina das crianças, além de oferecer uma maneira única de se expressar. Nossos instrutores são treinados para interagir e oferecer correção suave para crianças e adolescentes que praticam a arte do Jiu-Jitsu. Crianças com mais de três anos de idade podem começar o treinamento em qualquer uma das 700 escolas da Gracie Barra, experimentando o verdadeiro poder da fraternidade e da integridade. Nosso programa GBK é estruturado de maneira semelhante aos cursos para adultos, com adaptações e modificações feitas para atingir as diferentes faixas etárias da turma. As aulas de Jiu-Jitsu para crianças começam com os blocos de construção necessários para ensinar os fundamentos do Jiu-Jitsu. Desenvolvemos um currículo estruturado de forma a mostrar às crianças e adolescentes o valor da rotina, cooperação e autoconsciência.";;;;;"https://www.gbboaviagem.com.br/index.php?pagina=horarios";"Mon-Fri: 7:00am-9:30pm";"Leeds Francisco Ponsoni Esteves de Morais";;"contato@gbboaviagem.com.br";"https://www.facebook.com/gbboaviagem/";;;;0;;"CBJJ";;"BR";5588
"Gracie Barra Casa Forte";"https://graciebarracasaforte.negocio.site/";" + 55 81 99649-9060";"Avenida 17 De Agosto, 1609 - Casa Forte";"Recife";"PE";"52061-540";;"Brasil";"A Gracie Barra foi consagrada no ano de 2018 a maior escola de jiu jitsu do Mundo. Agora a Gracie Barra está ao seu alcance em Casa Forte.";;;;;;;;;"Mon-Fri: 7:00am-11:00pm, Sat: 8:00am-4:00pm";"Jefferson Marinho da Silva";;"graciebarracasaforte@gmail.com";"https://www.facebook.com/graciebarracasaforte/";"https://www.youtube.com/user/jeffersonm33";"https://youtu.be/xa75UmpWXlg";;0;;"CBJJ";;"BR";6095
"Guilherme Teixeira Team";;" + 55 81 98782-4146";"Av. Sebastião Salazar n: 561, Bairro: Cajueiro";"Recife";"PE";"52221-170";;"Brasil";;;;;;;;;;;"Guilherme Teixeira Cisneiros";;;;;;;0;;"CBJJ";;"BR";6919
"Escola de Jiu Jitsu Gutenberg Melo - Jardim São Paulo";;" + 55 81 98755-1291";"Rua Cláudio José de Lima n: 176, Bairro: Jardim Sao Paulo";"Recife";"PE";"50920-280";;"Brasil";;;;;;;;;;;"Hugo Medeiros, Isabelle Melo";;"escolajiujitsugm@gmail.com";"https://www.facebook.com/escolajiujitsugm/";;;;0;;"CBJJ";;"BR";528
"Jesiel Andrade Team";;" + 55 81 99717-5692";"Rua Gervasio Pires, 47 / 201, Boa Vista";"Recife";"PE";"50060-090";;"Brasil";;;;;;;;;;;"Jesiel do Nascimento Andrade";;;"https://www.facebook.com/Academia-de-Jiu-Jitsu-e-Muay-Thai-Jesiel-Andrade-Associa%C3%A7%C3%A3o-Andrade-327487800764629/";;;;0;;"CBJJ";;"BR";3795
"Nordeste Fight";;" + 55 81 99758-7157";"Rua Gomes Taborda, 1343 - Cordeiro";"Recife";"PE";"50630-250";;"Brasil";"Missão: Ensinar com qualidade a pratica esportiva, melhorar a qualidade de vida das pessoas e conscientizar que esporte é saúde ao alcanc ede todos. Visão: Ser uma escola de jiu jitsu reconhecida e admirada pela excelência em suas atividades e projetos sociais prestados a população.";;;;;;;;;;"Derval Luciano Rêgo";;"nordestefightpe@gmail.com";"https://www.facebook.com/Nordeste-Fight-807907995906402/";"https://www.youtube.com/channel/UCPxjwylQo-GKtnLaI-YtYqw";"https://youtu.be/p8X-oMnBDN4";;0;;"CBJJ";;"BR";2361
"Nova União Pernambuco";;" + 55 81 99684-5698";"Av. Santos Dumont, 246 - Aflitos";"Recife";"PE";"52041-060";;"Brasil";"Considerada uma das melhores academias de jiu-jitsu no mundo, Nova União “explodiu” para o MMA (mixed martial arts/artes marciais mistas).";;;;;;;;;;"Gesse Francisco de Oliveira Filho";;;"https://www.facebook.com/novauniaope/";"https://www.youtube.com/channel/UC1Tfk0D_yGQbPuRDeg5XsJQ/";"https://youtu.be/VyBkNBUj87g";;0;;"CBJJ";;"BR";6828
"Xeleco Brazilian Jiu-Jitsu";;;"Avenida João de Barros 1716, Espinheiro";"Recife";"PE";"52021-180";;"Brasil";;;;;;;;;;;"Alexandre Candido de Souza Junior";;;;;;;0;;"CBJJ";;"BR";5405
"Henrique Novaes Jiu Jitsu Team - HNJJT";;;"Av. Dep. Audomar Ferraz, 120, Diocesano Colégio e Curso";"Floresta";"PE";"56400-000";;"Brasil";;;;;;;;;;;"Henrique Marques Torres Novaes Goyanna";;;;;;;0;;"CBJJ";;"BR";7664
"Equipe Miranda de Jiu-Jitsu";;" + 55 87 98804-1012";"Av. Maria Coelho de Amorim n: 27 A - Predio, Bairro; Jose Maria";"Petrolina";"PE";"56320-087";;"Brasil";;;;;;;;;;;"José Humberto Tavares Soares";;"mmg-j@hotmail.com";"https://www.facebook.com/Equipe-Miranda-954209394601207/";;;;0;;"CBJJ";;"BR";6329
"Academia AFS Jiu-Jitsu";;;"Rua Rio Jiquiá n: 49 casa, Cordeiro";"Recife";"PE";"50721-310";;"Brasil";;;;;;;;;;;"Alexandre Fernandes de Souza";;;;;;;0;;"CBJJ";;"BR";6649
"Arte da Guerra BJJ";"https://zenithdojoartedaguerra.negocio.site/";" + 55 81 99444-1178";"Rua Guanabara, 200 - Coqueiral";"Recife";"PE";"50791-560";;"Brasil";;"https://lh3.googleusercontent.com/-FjUDzoQchzU/WkFrhBjv_gI/AAAAAAAAIqg/YtfKRuhTGW8lsaDmbA5CRp3k8-cXjt-7QCLIBGAYYCw/w1080-h608-p-k-no-v0/";;;;;;;;"Mon-Fri: 6:00am-11:00pm; Sat: 6:00pm-2:00pm; Sun: 6:00am-12:00pm";"Douglas Dias de Araújo";;;;;;;0;;"CBJJ";;"BR";6868
"Michael Freitas Brazilian Jiu-Jitsu";;" + 55 81 99559-6566";"Av. João de Barros n: 1716, Bairro: Espinheiro";"Recife";"PE";"52021-180";;"Brasil";;;;;;;;;;;"Michael Douglas Carvalho P. de Freitas";;"michael.freeeitas@hotmail.com";"https://www.facebook.com/MFreitasBJJ/";;;;0;;"CBJJ";;"BR";6986
"Perfil BJJ";"https://perfil-bjj.business.site/";" + 55 81 98422-6754";"Avenida Governador Agamenon Magalhães, 2807";"Recife";"PE";"50050-290";;"Brasil";"O Perfil BJJ surgiu da ideia de agregar vários perfis em um só lugar, um espaço para os mais diferentes estilos do jiu-jitsu, sendo guardeiro ou passador, da prática do movimento constante ao competitivo.";"https://lh3.googleusercontent.com/ybceoShYyDoYi7BI2kezd0iiphV1d1HdlKgw7BdOqUvtFYjJVRod5zNVnlubopFciQ_GwQyB6lhW4UFW=w1080-h608-p-no-v0";;;;;;;;;"Sidcley Vieira da Silva";;"perfilbjjpe@gmail.com";"https://www.facebook.com/perfilbjj/";;;;0;;"CBJJ";;"BR";7408
"Vega Jiu-Jitsu";;;"Rua Bom Jardim n: 600, Mangueira";"Recife";"PE";"50761-640";;"Brasil";;;;;;;;;;;"Jailson José da Silva";;;;;;;0;;"CBJJ";;"BR";6028
"VS Attd 81";;;"Av. Visconde de Jaquitinhonha n: 2902, Bairro: Boa Viagem";"Recife";"PE";"51130-020";;"Brasil";;;;;;;;;;;"Renato Cavalcanti de Castro";;;;;;;0;;"CBJJ";;"BR";7406
"Caetano Brazilian Jiu-Jitsu";;;"Rua Isabel Linhares n: 97, Lot. Vila Santa Maria, Tabajara";"Olinda";"PE";"53350-730";;"Brasil";;;;;;;;;;;"Derval Luciano Rêgo";;;;;;;0;;"CBJJ";;"BR";6301
"Soul Fighters/Delta Gold Team";;;"Rua Área Leão - n: 705 apt 102, Ed. Gon Goyo, Centro Sul";"Teresina";"PI";"64001-310";;"Brasil";;;;;;;;;;;"Alvaro Mansor Guarçoni";;;;;;;0;;"CBJJ";;"BR";3731
"Antônio Freitas BJJ";;;"Rua Governador Joca Pires, 1571, Fatima";"Teresina";"PI";"64049-522";;"Brasil";;;;;;;;;;;"Antonio Jose Nunes de Freitas";;;;;;;0;;"CBJJ";;"BR";5623
"Carlson Queiroz Jiu-Jitsu";;;"Rua Trevos, Quadra E, Casa 08, Morada do Sol";"Teresina";"PI";;;"Brasil";;;;;;;;;;;"Carlson Maia Queiroz";;;;;;;0;;"CBJJ";;"BR";209
"Cia Teresinense de Jiu-Jitsu";;;"Avenida União 2455 bloco B APT 102, Memorare";"Teresina";"PI";"64009-500";;"Brasil";;;;;;;;;;;"Elias Alves de Meneses Neto";;;;;;;0;;"CBJJ";;"BR";4190
"Quartel General da Luta";;" + 55 86 99802-4109";"Rua Desembargador Pires De Castro Sem nr Sala A Clube Do Marquês Bairro Marquês";"Teresina";"PI";"64001-390";;"Brasil";;;;;;;;;;;"Luiz da Costa Oliveira Junior";;"qgdalutaorionspiaui@hotmail.com";"https://www.facebook.com/Projeto-Esportivo-Quartel-General-da-Luta-398852973498495/";;;;0;;"CBJJ";;"BR";4046
"Hordisney Alencar BJJ";;;"Avenida Odilon Araujo n: 536, Piçarra";"Teresina";"PI";"64017-280";;"Brasil";;;;;;;;;;;"Hordisney Pereira de Sousa Alencar";;;;;;;0;;"CBJJ";;"BR";7531
"PS Heróis do Jenipapo";;;"Rua Manoel Ildefonso de Lima n: 2052, Parque Ideal";"Teresina";"PI";"64073-200";;"Brasil";;;;;;;;;;;"Carlos Henrique Alencar da Costa";;;;;;;0;;"CBJJ";;"BR";7007
"Warriors Fighter Brazilian Jiu-Jitsu";;;"Av. Odilon Araújo n: 536 - Corpus Fitness Academia, Bairro: Piçarra";"Teresina";"PI";"64017-280";;"Brasil";;;;;;;;;;;"Hordisney Pereira de Sousa Alencar";;;;;;;0;;"CBJJ";;"BR";7532
"Zit Independente";"https://zit-independente.negocio.site/";" + 55 86 98887-7760";"Quadra 21 Casa 16, Planalto Uruguai";"Teresina";"PI";"64057-400";;"Brasil";;;;;;;;;;;"Ayrton de Sousa Gomes";;;;;;;0;;"CBJJ";;"BR";7031
"Tanamati Jiu-Jitsu";;;"Rua Tucanos 245, Centro";"Arapongas";"PR";"86700-070";;"Brasil";;;;;;;;;;;"Fabiano Ricci";;;"https://www.facebook.com/Tanamatibjj/";;;;0;;"CBJJ";;"BR";5442
"Brazil Jiu-Jitsu";;;"Rua Xavier da Silva 981, Centro";"Campo Largo";"PR";"83601-010";;"Brasil";;;;;;;;;;;"Ramon Jamur";;;;;;;0;;"CBJJ";;"BR";4089
"BJJ Valdecir Tegoni Team";;;"Rua General Osório n: 1289, Comercial - Parque São Paulo";"Cascavel";"PR";"85803-760";;"Brasil";;;;;;;;;;;"Valdecir da Silva Tegoni";;;;;;;0;;"CBJJ";;"BR";7456
"Cleusso Roma BJJ";;;"Rua Seringueira, 266";"Cascavel";"PR";"85807-230";;"Brasil";;;;;;;;;;;"Cleusso de Oliveira Roma";;;;;;;0;;"CBJJ";;"BR";7622
"N1 Cia de Artes Marciais";;" + 55 45 9963-0828";"Rua Visconde do Rio Branco 3402 , Centro";"Cascavel";"PR";"85810-180";;"Brasil";;;;;;;;;;;"Elson de Jesus Pinto";;"n1teambrasil@gmail.com";"https://www.facebook.com/n1teambrasil/";;;;0;;"CBJJ";;"BR";3084
"Tomasausk Jiu-Jitsu";;;"Avenida America 4946";"Cianorte";"PR";"87200-000";;"Brasil";;;;;;;;;;;"Antonio Sergio Tomasausk";;;"https://www.facebook.com/tomasauskbjj/";;;;0;;"CBJJ";;"BR";6341
"Arena JJ";"https://www.academiaarena.com.br/";" + 55 41 3263-4277";"BR-116, 7500 - Tarumã";"Curitiba";"PR";"82520-560";;"Brasil";"O Jiu-Jitsu é arte marcial voltada para a defesa pessoal e ataque. Sendo de raiz indiana, teve seu desenvolvimento no Japão e sua evolução no Brasil, utilizando essencialmente golpes de alavancas, torções e pressões para dominar o oponente em lutas predominantemente de solo. O Jiu-Jitsu Arena foi o primeiro do sul do país, com sua introdução pelo mestre Evanri Gurgel Jr.";;"https://www.academiaarena.com.br/#kids";"As aulas de artes marciais para crianças tem por objetivo melhorar a concentração, proporcionar auto-estima, disciplina e saúde com total segurança. Muito mais do que apenas golpes e posições marciais, a disciplina e excelência exigidos pelos nossos instrutores muitas vezes reflete positivamente no comportamento da criança em casa e na escola.";;;;;"https://www.academiaarena.com.br/#gal2";;"Evanri Gurgel Nascimento Moura Junior";;"contato@academiaarena.com.br";"https://www.facebook.com/ArenaCuritiba";"https://www.youtube.com/channel/UCmZQEJwrfgldkCkSJxUrYSQ";"https://youtu.be/cRGOR1M2m_c";;0;;"CBJJ";;"BR";49
"Carlson Gracie Batel";;;"Rua Rodrigues Alves, 65 - Seminário";"Curitiba";"PR";"80240-460";;"Brasil";;;;;;;;;;;"Gustavo Nery Feres";;;;;;;0;;"CBJJ";;"BR";7478
"Carlson Gracie Curitiba";;" + 55 41 9995-2501";"Rua Augusto Stresser, 420 - Juvevê";"Curitiba";"PR";"80040-310";;"Brasil";;;;;;;;;;;"Roger Bento Holz";;;"https://www.facebook.com/carlsongraciejiujitsuteam/";;;;0;;"CBJJ";;"BR";4079
"Carlson Gracie Curitiba Oficial";;" + 55 41 99679-9109";"Rua Joaquim da Silva Sampaio, 183, Mercês";"Curitiba";"PR";"80710-630";;"Brasil";"Venha fazer parte dessa familia! Aprenda ""Arte Suave"", você vai se apaixonar por esse esporte, aulas todos os dias em diversos horários, venha fazer parte dessa Família, OSSs";;;;;;;;;;"Rogério Camargo Leite";;;"https://www.facebook.com/CT-Rog%C3%A9rioleitebjjCarlson-Gracie-Curitiba-407007022688669/";"https://www.youtube.com/user/rlpersonal10";"https://youtu.be/1z2CxeMMGqk";;0;;"CBJJ";;"BR";7617
"CheckMat/Equipe 1";"https://jiujitsucuritiba.com/";" + 55 41 3343-2520";"Rua Santa Catarina, 33 - Agua Verde";"Curitiba";"PR";"80620-100";;"Brasil";"A Equipe 1 é uma academia especializada em aulas de jiu jitsu, muay thai, boxe e submission em Curitiba. Faça parte de uma das maiores equipes do mundo, a Checkmat! Com 13 anos de experiência, nossa academia forma vários campeões brasileiros e até mundiais em artes marciais. Oferecemos aulas para o público masculino, feminino e infantil, a partir dos 4 anos de idade. Com professores reconhecidos pela CBJJ e IBJJF, amplo tatame para as aulas e variedade de treinos, somos capazes de atender nossos alunos, independente de quais forem seus objetivos. Se você quer uma atividade física que seja dinâmica e fora das tradicionais academias de musculação, as artes marciais melhoram seu condicionamento físico e te ajudam a manter a forma e uma vida saudável. Se o seu objetivo é aprender um método de defesa pessoal e tem vontade de praticar uma modalidade de luta, aqui trabalhamos desde o nível inicial ao mais elevado. E logo você vai saber como se proteger e se comportar em situações de perigo. Ou também para os atletas, que procuram se profissionalizar e desenvolver suas técnicas, nossos professores podem te auxiliar em seu processo de evolução e desenvolvimento, te orientando nas competições e acompanhando suas conquistas. Faça uma aula experimental e sinta você mesmo os benefícios das artes marciais!";"https://jiujitsucuritiba.com/wp-content/uploads/2018/10/logo.png";;;;;"Muay Thai, Boxing";;;"Mon-Fri: 7:00am-12:00am, Sat: 10:00am-6:00pm";"Sebastian Augusto Lalli";;"leticialalli@gmail.com";"https://www.facebook.com/equipe1checkmat/";;;;0;;"CBJJ";;"BR";998
"Clube Curitibano";"https://www.clubecuritibano.com.br/";" + 55 41 3014-1919";"Av. Getúlio Vargas 2857, Água Verde";"Curitiba";"PR";"80240-040";;"Brasil";"Uma das maiores e mais tradicionais agremiações da América Latina. Compromisso com esporte, cultura, social e filantropia. Clube Curitibano, o melhor momento do seu dia! A história do Clube Curitibano faz parte de um importante capítulo da história da própria cidade de Curitiba.";;;;;;;;;"Mon-Fri: 6:00am-11:00pm, Sat: 7:00am-6:00pm; Sun and Holidays: 7:00am-6:00pm";"Rodrigo Fajardo";;"redacao@clubecuritibano.com.br";"https://www.facebook.com/ClubeCuritibano/";"https://www.youtube.com/user/ClubeCuritibano";"https://youtu.be/MjdtDOXWnG4";;0;;"CBJJ";;"BR";254
"Galeto Brothers BJJ";;" + 55 41 99289-8952";"Av. Presidente Wenceslau Braz, 2453 - Lindoia";"Curitiba";"PR";"81010-000";;"Brasil";"A Galeto Brothers BJJ é uma das equipes mais tradicionais de Curitiba , deu origem a partir dos irmãos Wagner Campos ""Galeto"" e William Campos ""Galetinho"" , o objetivo da equipe é levar o Jiu Jitsu a todos, homens , mulheres e crianças , desde o atleta competidor até o aluno que quer entrar no estilo de vida do esporte . Liderada por Wagner Campos ""Galeto"" faixa preta 3º grau com vários títulos no Jiu Jitsu e veterano atleta de MMA.";;;;;;;;;;"Wagner Mendes Campos";;;"https://www.facebook.com/GaletoBrothers/";"https://www.youtube.com/user/GaletoBrothersBJJMMA";"https://youtu.be/yboLH3-xdaM";;0;;"CBJJ";;"BR";3427
"Gile Ribeiro BJJ";;;"Rua Dr. Faivre n: 832, Centro";"Curitiba";"PR";"80060-140";;"Brasil";;;;;;;;;;;"Gilliano Antônio Ribeiro";;;;;;;0;;"CBJJ";;"BR";2014
"Gracie Barra Curitiba";"https://graciebarracuritiba.com.br/";" + 55 41 3252-2838";"Rua México, 1053 - Bacacheri";"Curitiba";"PR";"82590-300";;"Brasil";"Em uma vida dedicada ao crescimento e desenvolvimento do Jiu-Jitsu e da Gracie Barra, o Mestre Carlos Gracie Jr. sempre orientou seus esforços e ações baseado em princípios e valores. Entre os valores mais presentes em tudo que o Mestre Carlinhos construiu destacaram-se irmandade, expansão e integridade. Dito de forma simples por ele mesmo: “Minha vida é dedicada ao Jiu-Jitsu. Meu objetivo sempre foi construir uma irmandade para liderar a expansão do Jiu-Jitsu, respeitando sempre a essência da nossa arte. Meus alunos são uma extensão da minha família. Eu quero que cada um dos meus alunos desenvolva o seu potencial como ser humano, ajudando na expansão do Jiu-Jitsu. Devemos fazer isso honrando as tradições e os esforços daqueles que vieram antes de nós.”- Carlos Gracie Jr. Os valores e princípios que constroem filosofia pessoal do Mestre Carlos Gracie Jr. definiram em grande parte a cultura da Gracie Barra.";"https://graciebarracuritiba.com.br/wp-content/uploads/2019/03/Logo-Gracie-Jiu-Jitsu-Icon.png";;"Para atingir excelência em qualquer empreitada, o indivíduo precisa ter um forte conjunto de valores e um caráter sólido que lhe conceda a perseverança necessária para buscar os seus objetivos. O Programa Campeões do Futuro da Gracie Barra foi criado para proporcionar às crianças idades na faixa etária dos 3 aos 15 anos um ambiente que lhes permita experimentar e compreender valores essenciais como foco, disciplina, persistência, cooperação e respeito. Como um esporte de contato, o Jiu-Jitsu brasileiro oferece um ambiente desafiador, porém seguro que permite a criança amadurecer para se tornar um campeão da vida. A prática do Jiu-Jitsu infantil vai muito além das conquistas do tatame. A disciplina e excelência exigidos pelos nossos instrutores muitas vezes reflete positivamente no comportamento da criança em casa e na escola. Pequenos Campeões I (3-6 anos); Pequenos Campeões II (7-9 anos); Juniors e Adolescentes (10-14 anos).";;"10 BENEFÍCIOS DO JIU-JITSU PARA MULHERES 1. Defesa Pessoal. A prática do Jiu Jitsu serve para a defesa pessoal do indivíduo, numa situação de risco. 2. Conquista Individual. O Jiu Jitsu melhora sua auto-compreenção, aumenta a auto-estima, autoconfiança e desenvolve o caráter. 3. Desenvolvimento Corporal. Como existe muita movimentação, pode ocorrer a definição do corpo como: braços, abdômen e quadril. 4. Metabolismo. Durante a prática do Jiu Jitsu existe a aceleração do metabolismo e aumento da resistência do organismo. 5. Condicionamento Físico. Por ser um esporte de explosão, existe a melhora na capacidade cardiovascular e respiratória. 6. Sociabilização. O contato físico faz com que tímidos fiquem desinibidos e agitados e ansiosos, fiquem mais calmos. 7. Flexibilidade. A movimentação realizada durante a prática do jiu jitsu, melhora e aumenta a flexibilidade. 8. Coordenação Motora. Aumenta a capacidade do indivíduo de usar de forma mais eficiente os músculos do corpo. 9. Reflexos. Estimula o sistema nervoso na criação de estratégias, aumentando os reflexos dentro e fora do tatame. 10. Controle Emocional. A liberação da endorfina que se dá durante e depois, ajuda no controle emocional, mantendo o bem estar.";;;;"Mon-Thurs: 7:00am-10:00pm, Fri: 7:00am-8:30pm, Sat: 10:00am-12:00pm";"Rodrigo Fajardo";;"curitibagraciebarra@gmail.com";"https://www.facebook.com/GracieBarraCuritiba/";"https://www.youtube.com/channel/UCfkfZVG00X9ItxBvQIwZKUg";"https://youtu.be/vSuV76MiLSw";;0;;"CBJJ";;"BR";517
"Holy Vision Ágape";;" + 55 41 99928-1241";"Rua Padre Dehon, Bairro: Hauer";"Curitiba";"PR";"81670-100";;"Brasil";"Trabalhamos sem nenhum retorno financeiro, os alunos são selecionados e recrutados para a instituição HOLY VISION; Orientação a criança e ao adolescente na prevenção quanto ao uso de drogas; Ajudar na recuperação e reabilitação de jovens com dependências químicas; Reeducação familiar ao que se refere a dependência química; Melhorar o trabalho Dentro da Instituição no que diz respeito ao trabalho e treinamento de lideres para o mercado de trabalho, com palestras de voluntários; Temos a proposta de começar a trabalhar na preparação dos jovens para o primeiro emprego, menores aprendizes, isso é realizado com palestras e reuniões voltadas para comportamento e postura profissional do mercado de trabalho";;;;;;;;;;"Francisco Albuquerque Gonçalves Junior";;"jpconsultoria.jeff@hotmail.com";"https://www.facebook.com/projetosocialhv/";;;;0;;"CBJJ";;"BR";6602
"Louva a Deus BJJ";;;"Rua Itapejara do Oeste n: 49, Alto Boqueirão";"Curitiba";"PR";"81770-380";;"Brasil";;;;;;;;;;;"Gildo Vitório da Silva";;;;;;;0;;"CBJJ";;"BR";7481
"Schubert Jiu-Jitsu";"https://www.schubertbjj.com/";" + 55 41 9950-5026";"Rua Professor Leonardo Cobbe, 2 - Barreirinha ";"Curitiba";"PR";"82220-050";;"Brasil";"As Escolas Schubert  Jiu-Jitsu estão presentes em varios Estados e no exterior, e mantém vivo o legado do verdadeiro Jiu-Jitsu Brasileiro fundado pelos Mestres Carlos Gracie e Hélio Gracie na década de 20 do século passado. O Gracie Jiu-Jitsu como também é conhecido provou ser a forma mais efetiva de defesa pessoal já desenvolvida.";;;;"https://www.schubertbjj.com/programas/8";;;;;;"Marcos Roberto Schubert";;;"https://www.facebook.com/schubertjiujitsucuritiba/";"https://www.youtube.com/user/graciepr";"https://youtu.be/49BLmRFFtqY";;0;;"CBJJ";;"BR";2706
"Taurino Brotherhood BJJ School";;;"Rua Francisco Raitani n: 6369, Capão Raso";"Curitiba";"PR";"81110-070";;"Brasil";;;;;;;;;;;"Willians Taurino Moreira";;;;;;;0;;"CBJJ";;"BR";5613
"Team Monge";;;"Rua Octacyr Reinando Mion 164, Xaxim";"Curitiba";"PR";"81710-050";;"Brasil";;;;;;;;;;;"Luciano Morais";;;;;;;0;;"CBJJ";;"BR";5123
"ARTSU BJJ";"https://artsubjj.com/";" + 55 41 99727-5365 ";"Av. Paraguai, 383 - Naçoes";"Fazenda Rio Grande";"PR";"83823-084";;"Brasil";"A missão da Escola é, primeiramente, honrar a Deus. Realizar sempre o melhor trabalho e desenvolver as habilidades e técnicas dos alunos, a fim de promover o bem estar físico, mental e espiritual. Por fim, orienta-los na busca de seus objetivos e na realização de seus sonhos. A Escola foi fundada no ano de 2018, pelo Mestre Júlio Cezar Diedzits, que iniciou a prática da arte marcial no ano de 2001, na equipe Gile Ribeiro. Durante a trajetória, pegou a faixa preta no 2º semestre do ano de 2010. Desde a mocidade já havia um sonho implantado em seu coração na criação da escola ARTSU. Assim, no final de 2018 viu a possibilidade de concretizar esse sonho e deu início a sua realização. Atualmente, a Escola encontra-se sediada na Comarca de Fazenda Rio Grande, no bairro Nações, com grandes projetos a serem executados durante este ano de 2020.";;;;;;;;;"Mon-Fri: 6:00am-10:00pm";"Julio Cesar Diedzits";;"contato@artubjj.com";"https://www.facebook.com/artsubjj/";;;;0;;"CBJJ";;"BR";6571
"Davi Augusto BJJ";;;"Rua Canindé n: 373, Comercio Bairro: Morumbi";"Foz do Iguaçu";"PR";;;"Brasil";;;;;;;;;;;"Davi Augusto dos Santos";;;;;;;0;;"CBJJ";;"BR";6533
"Equipe Rossoni";;" + 55 42 3626-2841";"R: Bernardo José Lacerda 534, Santa Cruz";"Guarapuava";"PR";"85015-400";;"Brasil";;;;;;;"Karate, Muay Thai, Self Defense";;;;"Cristiano Francisco Rossoni";;"crisrossoni5@hotmail.com";"https://www.facebook.com/Equipe-Rossoni-250734904962655/";"https://www.youtube.com/user/Crisjiujitsu29";"https://youtu.be/jVqkSuULVEA";;0;;"CBJJ";;"BR";4076
"JK Jiu-Jitsu";;" + 55 41 99998-3335";"Av. Mafra 453 Sobrado, Picorras";"Guaratuba";"PR";"83280-000";;"Brasil";"Academia JK Jiu-Jitsu registro CBJJ e IBJJF n° 5025, Professor Jefferson Allan Batista Diplomado pela CBJJ e IBJJF n° 172498. Dedicação e vontade é o que faz de você um campeão.";;;;;;;;;;"Jefferson Allan Batista";;"jeffekeko@hotmail.com";"https://www.facebook.com/JKJiuJitsu/";;;;0;;"CBJJ, IBJJF";;"BR";5025
"Armis Training Center";;" + 55 43 3354-9931";"Av. Higienópolis, 2669";"Londrina";"PR";"86050-330";;"Brasil";;;;;;;;;;;"Daniel Macedo Reis";;"armislondrina@hotmail.com";"https://www.facebook.com/armistrainingcenter/";;;;0;;"CBJJ";;"BR";5064
"Edegar Kimura Jiu-Jitsu";;" + 55 43 99955-4903";"R. Mossoró, 261 - Centro";"Londrina";"PR";"86020-290";;"Brasil";;;;;;;;;;;"Edegar Akio Kimura";;"edegarkimurajudo@hotmail.com";"https://www.facebook.com/Edegar-Kimura-Jiu-Jitsu-1430740383859777/";;;;0;;"CBJJ";;"BR";5621
"HJJT - Horse Jiu-Jitsu Team";"http://hjjt.com.br/";;"Rua Maria Quiteria 318 , Jd. Brasilia";"Londrina";"PR";"86039-540";;"Brasil";"Representa a tradição da arte suave. Pioneira em Londrina, a HJJT valoriza princípios, como a pureza técnica e a disciplina.";"http://hjjt.com.br/assets/imagens/logo-topo.png";;;;;;;"http://hjjt.com.br/horarios.html";;"Paulo Henrique Guimarães Rett";;"horsejj@hotmail.com";"https://www.facebook.com/equipehjjt/";;"https://youtu.be/24V6j0bUGRU";;0;;"CBJJ";;"BR";2028
"Pato Jiu-Jitsu Team";;" + 55 43 3323-3091";"Avenida Higienópolis, 1403";"Londrina";"PR";"86050-020";;"Brasil";;;;;;;;;;;"Marcelo Donald Pereira";;;"https://www.facebook.com/patojjt/";;;;0;;"CBJJ";;"BR";6466
"Selvagem Jiu-Jitsu";;" + 55 43 3361-8151";"Av. Tiradentes, 280 - 1º andar - sala 02";"Londrina";"PR";"86025-000";;"Brasil";"Dojô Selvagem jiu-jitsu team é um centro esportivo de artes marciais focado em treinos especificos para diferentes tipos de praticantes.";;;;;;;;;;"Luciano Barreto Vieira dos Santos";;"dojoselvagem@gmail.com";"https://www.facebook.com/selvagemjiujitsuteam/";"https://www.youtube.com/channel/UCADJxxnfg7vasA2Oydfv6cw";"https://youtu.be/7loQkMmdIoc";;0;;"CBJJ";;"BR";5651
"Aprove Jiu-Jitsu Team";;" + 55 45 99819-2134";"Rua Pará n: 389, Bairro: Espigão";"Marechal Candido Rondon";"PR";"85960-000";;"Brasil";;;;;;;;;;;"Angelo Antonio Fonte dos Reis";;;"https://www.facebook.com/Aprove-276000572574590/";;;;0;;"CBJJ";;"BR";7362
"Clube Feijão de Jiu-Jitsu";"http://clubefeijao.com.br/";" + 55 44 3346-3497";"Rua Saldanha Marinho n: 623, Zona 07";"Maringá";"PR";"87030-070";;"Brasil";"Equipe clube ""Feijão"" foi criada em 2005, pelo professor Rodrigo Garcia ""Feijão"" com intuito de desenvolver e evoluir atletas de JIU JITSU competitivo e também mostrar que um trabalho com pilares na educação, respeito e muita disciplina pode levar qualquer pessoa ao um nível de vida melhor e estilo saudável. Ao passar dos ano vimos que esse trabalho foi criando uma proporção muito grande e decidimos a ter o próprio espaço para poder dar uma melhor assistência para todos, pois agora podemos oferecer para os não competidores a mesma qualidade de tratamento e disciplina, vendo assim a nova possibilidade de trabalho levar uma boa qualidade de saúde através do JIU JITSU.";"http://clubefeijao.com.br/wp-content/uploads/2018/12/medida-logo2.png";"http://clubefeijao.com.br/jiu-jitsu/";"Jiu Jitsu desenvolve muito o raciocínio e equilíbrio mental , assim trabalhando a parte cognitiva e mental da criança e ajudando na formação da personalidade. Jiu Jitsu infantil tem uma formal lúdica de ensinar sem comprometer o desenvolvimento motor e trabalhando todas as habilidades motoras. 3 grandes pilares do Jiu Jitsu Kids na academia CFBJJ: Antibullying; Referências (vida saudável e pessoas determinadas); Sociabilização ";;;;;"http://clubefeijao.com.br/jiu-jitsu/";;"Rodrigo Antonio Garcia da Silva";;"clubefeijaojiujitsu@gmail.com";"https://www.facebook.com/clubefeijaojj/";;;;0;;"CBJJ";;"BR";2001
"Dennis Jiu-Jitsu Club";"https://dennislimabjj.com/";;"Av. Rio Branco n: 155, Zona 4";"Maringá";"PR";"87015-380";;"Brasil";"Created in 2003 by professor and athlete Edenilson Roberto Siqueira de Lima, the team Dennis Jiu-Jitsu Club “DJJC” (affiliated to Lead BJJ) is responsible for the production of big names in national and international Jiu-Jitsu and is considered a reference in southern Brazil for its competitive focus without leaving a side the part of the sport that appeals to people who want to practice to maintain good health. The team is headquartered in the city of Maringa, PR with branches spread throughout the state. Now the team has 26 black belts formed by Professor Lima.";"https://dennislimabjj.files.wordpress.com/2020/10/foto-pagina-dennis-jj-2.jpg";;;;;;;;;"Edenilson Roberto Siqueira de Lima";;"edenilsonbjj@gmail.com";"https://www.facebook.com/Dennis-Jiu-Jitsu-Club-1538222752943210/";"https://www.youtube.com/channel/UCbWJ5cxkl-6uNSrnyEH5YSA";"https://youtu.be/ZcJ9kGMVPg8";;0;;"CBJJ";;"BR";4020
"Passos Brazilian Jiu-Jitsu";;" + 55 41 9128-0867";"Rua Baronesa do Cerro Azul 747, João Gualberto";"Paranaguá";"PR";"83206-225";;"Brasil";"A academia Passos Jiu-Jitsu é uma academia completa de artes marciais. Nela praticamos Jiu-Jitsu, Muay-Thai, Boxe e M.M.A. .";;;;;;"Muay Thai, Boxing, MMA";;;;"Jaci Ricardo Leal Passos";;"jaci.ricardo@uol.com.br";"https://www.facebook.com/passosbjj/";;;;0;;"CBJJ";;"BR";4012
"Capy Brazil Team";;;"Rua Enfermeira Adelaide Pareta, 352, Vila Deize - Uvaranas";"Ponta Grossa";"PR";;;"Brasil";;;;;;;;;;;"Carlos Pylypiec";;;;;;;0;;"CBJJ";;"BR";5327
"Gile Ribeiro Portal de São José";;" + 55 41 99937-5445";"Rua Harry Feeken n: 218, Bairro: Boneco do Iguaçu";"São José dos Pinhais";"PR";"83040-000";;"Brasil";;;;;;;"Muay Thai";;;;"Celso Pereira Junior";;"jrbarjiu@hotmail.com";"https://www.facebook.com/ctgrportal/";;;;0;;"CBJJ";;"BR";7173
"Alex Barreto Team";;;"Av. Prefeito Nelson Melo n: 1260, Centro";"Propriá";"SE";"49900-000";;"Brasil";;;;;;;;;;;"Alex Gomes Barreto";;;;;;;0;;"CBJJ";;"BR";7104
"Carlson Gracie Angra dos Reis";;" + 55 24 99883-5731";"Rua João Bruno n: 195, Bairro: Frade";"Angra dos Reis";"RJ";"23946-045";;"Brasil";;;;;;;;;;;"Marcio Livio Andrade Abraçado";;"marciolivioabracado@gmail.com";;;;;0;;"CBJJ";;"BR";7272
"DPT Jiu-Jitsu";;;"Rua Japoranga 1 Loja 8";"Angra dos Reis";"RJ";"23934-055";;"Brasil";;;;;;;;;;;"Denilson de Carvalho Pimenta";;;;;;;0;;"CBJJ";;"BR";7685
"Junior Santos Geribá BJJ";;;"Rua Vieira Camara - LT 11 QD: C A 15 - Condominio, Ferradurinha";"Armação dos Buzios";"RJ";;;"Brasil";;;;;;;;;;;"Simonides Manoel dos Santos Júnior";;;;;;;0;;"CBJJ";;"BR";5719
"Gracie Barra Parque Olímpico";"https://gbparqueolimpico.com.br/";" + 55 21 97163-2292";"Av. Embaixador Abelardo Bueno, 3500, Loja 201";"Rio de Janeiro";"RJ";"22775-040";;"Brasil";"A Gracie Barra Parque Olímpico é uma escola Premium de Jiu-Jitsu. Oferecemos programas que atende a todas as pessoas independente do seu nível de condicionamento físico ou conhecimento da arte suave. A GB Parque Olímpico surgiu da ideia de seus sócios. Sergio e Kleber resolveram abrir a escola devido a longa relação de aluno e professor que construíram durante anos. Essa experiência durante as aulas levou a ambos acreditarem nos princípios e valores que o Mestre Carlos Gracie Jr. construiu se baseando na irmandade, expansão e integridade.";"https://gbparqueolimpico.com.br/wp-content/uploads/2017/08/logo-e1603136034154.png";"https://gbparqueolimpico.com.br/gb-kids/";"O que é preciso para ser um campeão? Pode uma arte marcial apoiar os ensinamentos dos pais? Para atingir excelência em qualquer empreitada, o indivíduo precisa ter um forte conjunto de valores e um caráter sólido que lhe conceda a perserverança necessaria para buscar os seus objetivos. O Programa Campeões do Futuro da Gracie Barra foi criado para proporcionar às crianças idades na faixa etária dos 3 aos 15 anos um ambiente que lhes permita experimentar e compreender valores essenciais como foco, disciplina, persistência, cooperação e respeito. Como um esporte de contato, o Jiu-Jitsu brasileiro oferece um ambiente desafiador, porém seguro que permite a criança amadurecer para se tornar um campeão da vida. A prática do Jiu-Jitsu infantil vai muito além das conquistas do tatame. A disciplina e excelência exigidos pelos nossos professores e instrutores muitas das vezes reflete positivamente no comportamento da criança em casa e na escola. Nosso Programa Campeões do Futuro é tipicamente subdividido em cinco grupos diferentes para acomodar os alunos de diferentes idades e níveis de habilidade: Mini Campeões (3 a 4 anos); Pequenos Campeões (5 a 6 anos); Pequenos Campeões II (7 a 9 anos); Junior (10 a 12 anos); Adolescente (13 a 15 anos)";;;"BarraFit";;"https://gbparqueolimpico.com.br/horarios/";;"Kleber de Oliveira Paulino";;"graciebarra@gbparqueolimpico.com.br";"https://www.facebook.com/gbparqueolimpico/";"https://www.youtube.com/channel/UCDl0aRtng0lIVvk49nGyqdQ";"https://youtu.be/kMrZOF5er5Y";;0;;"CBJJ";;"BR";6840
"EPJJ Team";;;"Rua Moreira dos Santos n: 60 sala 01, Centro";"Barra do Pirai";"RJ";"27135-030";;"Brasil";;;;;;;;;;;"Emerson Leandro de Paula";;;;;;;0;;"CBJJ";;"BR";7564
"RFT-Renovação Fight Team";"http://www.rft.com.br/";"  + 55 21 3591-7245";"Rua General Polidoro, 83 - Botafogo";"Rio de Janeiro";"RJ";"22280-002";;"Brasil";"Fundada no Rio de Janeiro em 2001, a RFT Renovação Fight Team é hoje a maior referência em Luta-Livre Esportiva no Brasil e no mundo. Atualmente é especializada em sete modalidades de artes marciais (Boxe Inglês, Jiu Jitsu, Judô, Luta-Livre, MMA, Muay Thai e Wrestling). Sob o comando do mestre Marcio Cromado, a equipe vem conquistando ao longo de uma década inúmeros títulos em competições em todos os cantos do planeta graças a participação de seus atletas nos principais eventos esportivos internacionais e às academias com bandeira RFT nos Estados Unidos, Alemanha, México e parcerias sólidas na Inglaterra e Israel.";"http://www.rft.com.br/wp-content/uploads/2014/12/logo_rft180.png";;;;;"English Boxing, Judo, Wrestling, MMA, Muay Thai";;;;"Marcio “Cromado” Barbosa";;"falecom@rft.com.br";"https://www.facebook.com/rftbrasil/";"https://www.youtube.com/user/rftbrasil";"https://youtu.be/wXxBBnyHUOM";;0;;"CBJJ";;"BR";7296
"Heleno Maia JJ";;;"Rua Veneza N: 11, Jardim Excelsior";"Cabo Frio";"RJ";"28915-040";;"Brasil";;;;;;;;;;;"Heleno de Souza Maia";;;;;;;0;;"CBJJ";;"BR";1099
"Lúcio Flávio JJ";;;"Avenida José Alves de Azevedo, 941";"Campos dos Goytacazes";"RJ";"28026-622";;"Brasil";"Jiu Jitsu, mais que um esporte, uma filosofia de vida!";;;;;;;;;;"Lucio Flavio de Campos";;;"https://www.facebook.com/L%C3%BAcio-Fl%C3%A1vio-JJ-1580140068876041/";;;;0;;"CBJJ";;"BR";7124
"Projeto Caneca Jiu-Jitsu";;" + 55 22 99813-1821";"Rua Fernando Pecly S/N";"Campos dos Goytacazes";"RJ";"28090-230";;"Brasil";;;;;;;;;;;"Maycon Caneca Dos Santos";;;"https://www.facebook.com/Projeto-Caneca-Jiu-jitsu-264262624100829/";;;;0;;"CBJJ";;"BR";7728
"GF Team Região dos Lagos";;;"Avenida Maricá n: 1263, Barra de São João";"Casimiro de Abreu";"RJ";"28860-000";;"Brasil";;;;;;;;;;;"Thiago dos Santos Rabello";;;;;;;0;;"CBJJ";;"BR";6585
"Talmid Jiu-Jitsu";;;"Rua Joaquim Nabuco n: 1655, bairro: Capoeiras";"Florianópolis";"SC";"88090-060";;"Brasil";;;;;;;;;;;"Davi Valdir de Faria Junior";;;;;;;0;;"CBJJ";;"BR";7343
"Jackson Junior BJJ Team";;;"R. Francisca Júlia, 173 - Anil";"Rio de Janeiro";"RJ";"22755-070";;"Brasil";;;;;;;;;;;"Jackson Figueiredo Lage Junior";;;"https://www.facebook.com/jaktrainer/";;;;0;;"CBJJ";;"BR";6988
"GFTeam Coroa Grande";"https://gfteamcoroa.negocio.site/";" + 55 21 97465-3572";"Rua Campo Rico, 73 - Vila Paraiso";"Itaguaí";"RJ";"23825-270";;"Brasil";"Equipe GFTeam Em Coroa Grande comandada pelo Professor Isaias Jangal formado pelo Mestre Leandro Vilar.";;;;;;;;;"Mon-Thurs: 7:00pm-9:30pm";"Isaias da Costa Santos";;;;;;;0;;"CBJJ";;"BR";6666
"Academia LVBJJ";;;"Rua São Paulo n: 952 Quadra 29, Estrela do Céu";"Itaguaí";"RJ";"23812-105";;"Brasil";;;;;;;;;;;"Leandro Jorge Pereira Vilar";;;;;;;0;;"CBJJ";;"BR";5930
"Cavaliers Top Team";;;"Rua Orlando Silva S/N - Lote 5 Qd 144 C:B, Bairro: Engenho";"Itaguaí";"RJ";"23826-245";;"Brasil";;;;;;;;;;;"Hélio Xavier dos Santos";;;;;;;0;;"CBJJ";;"BR";6937
"Buys Brazilian Jiu-Jitsu";;;"Av. Vereador Adir Luis Schuller n: 1400, Mirante da Lagoa";"Macaé";"RJ";"27925-410";;"Brasil";;;;;;;;;;;"Carlos Frederico Buys Junior";;;;;;;0;;"CBJJ";;"BR";6418
"Escola BBS Jiu-Jitsu";;" + 55 22 99737 1289";"Avenida Rui Barbosa, Loja 42 A - Alto dos Cajueiros";"Macaé";"RJ";"27910-361";;"Brasil";"A Black Belts School foi desenvolvida por dois atletas: Um atleta da NU, EDUARDO CAMPOS, faixa Preta, com 22 anos de prática da Arte Suave, e o outro atleta é o BRUNO BOMFIM, Faixa Marrom, com 15 anos de experiência. Veio de uma das maiores agremiações denominada GRACIE.Na caminhada contamos com o apoio e particição de amigos, atletas e alunos leais que nos tem ajudado, sem deixar de lado os servos de Deus: pastor Luis Carlos Gnecco e pastor Wanderson Barros. Obrigada a Todos!";;;;;;;;;;"Eduardo de Souza Campos";;"bbjjschool@gmail.com";"https://www.facebook.com/BlackBeltsSchool/";;;;0;;"CBJJ";;"BR";7174
"Império Team Olive";;;"R. Dr. Álvaro da Paixão Júnior, n° 50 - Parque Aeroporto";"Macaé";"RJ";"27963-780";;"Brasil";;;;;;;;;;;"Ernesto Bacellar Olive";;;"https://www.facebook.com/academiaimperioteamolive/";;;;0;;"CBJJ";;"BR";6452
"João Santos BJJ";;;"Rua W20, sentido praia, n. 16 Travessa Vila das Flores, true Bairro: Lagomar";"Macaé";"RJ";;;"Brasil";;;;;;;;;;;"João Cláudio R. dos Santos";;;;;;;0;;"CBJJ";;"BR";7328
"Marcos Machado Jiu-Jitsu";;;"Av. Lagomar n: 207 fundos, Engenho da Praia";"Macaé";"RJ";;;"Brasil";;;;;;;;;;;"Marcos Jose de Matos Machado";;;;"https://www.youtube.com/user/markynhosdj";"https://youtu.be/ljf5E3wE9qU";;0;;"CBJJ";;"BR";6731
"OAK Jiu-Jitsu";;" + 55 22 98133-4682";"Av. Carlos Augusto Tinoco Garcia, 1516 - Sol e Mar";"Macaé";"RJ";"27940-290";;"Brasil";;;;;;;;;;;"Luan de Carvalho Alves";;;"https://www.facebook.com/Oakjiujitsu/";;;;0;;"CBJJ";;"BR";6593
"Ruan Quintanilha BJJ";;;"Av. Automóvel Club n:3570, Loja";"Magé";"RJ";"25900-000";;"Brasil";;;;;;;;;;;"Ruan Quintanilha da Silva";;;;;;;0;;"CBJJ";;"BR";7420
"Team Orochi Jiu-Jitsu";;;"Rua Dona Hilda n: 117, bairro: Piabetá";"Magé";"RJ";;;"Brasil";;;;;;;;;;;"Alexandre Torquato Ricardo Alves";;;;;;;0;;"CBJJ";;"BR";7508
"Daniel Dantas Jiu-Jitsu School";;" + 55 21 98614-0036";"Rua das Camélias (Rod. Amaral Peixoto Km 21), São José do Imbassaí";"Maricá";"RJ";"24930-504";;"Brasil";"Jiu-Jitsu de qualidade e alto nível para praticantes e atletas. Venha nos fazer uma visita!!! Nosso objetivo é oferecer um Jiu-Jitsu de qualidade para praticantes e atletas.";;;;;;;;;;"Daniel Dantas Peres";;"danieldantasbjj@gmail.com";"https://www.facebook.com/danieldantasbjj/";;;;0;;"CBJJ";;"BR";6528
"Ideal Jiu-Jitsu";;" + 55 21 97259-2111";"Rua Maranhão, 191 - Méier";"Rio de Janeiro";"RJ";"20720-230";;"Brasil";;;;;;;;;;;"Bruno Dias dos Santos";;;"https://www.facebook.com/idealjj/";;;;0;;"CBJJ";;"BR";7035
"Game Fight Miguel Pereira";;;"Rua Luiz Márquez, 150";"Miguel Pereira";"RJ";"26900-000";;"Brasil";;;;;;;;;;;"Vinícius Jorge Dubugras do Amaral";;;;;;;0;;"CBJJ";;"BR";7600
"Centro de Lutas Sandrão Santana";;;"Rua José Ribeiro Leite n: 131, Centro";"Miracema";"RJ";"28460-000";;"Brasil";;;;;;;;;;;"Sandro Batista de Santana";;;;;;;0;;"CBJJ";;"BR";7357
"Caju Jiu-Jitsu Academy";"https://www.cajujjacademy.com/";" + 55 21 3254-5286";"Rua Geraldo Martins, 134 - 2 andar - Santa Rosa";"Niterói";"RJ";"24220-380";;"Brasil";"Estaremos sempre no tatame com a mesma missão: compartilhar e aprender. E neste caminho passaremos juntos pelos desafios que a pratica de uma arte marcial como o Jiu-Jitsu nos oferece. Aprenderemos técnicas baseadas em alavancas e autoconhecimento necessário para saber como e quando usa-las.";"https://static.wixstatic.com/media/6c8ed0_45d352ea4c8348e0b78efedd7552b39d~mv2.png/v1/fill/w_59,h_52,al_c,q_85,usm_0.66_1.00_0.01/LOGOBOLA.webp";;;;;;;"https://www.cajujjacademy.com/hor%C3%A1rios";;"Romulo de Souza Azevedo";;"cajujjacademy@gmail.com";"https://www.facebook.com/cajujjacademy/";"https://www.youtube.com/channel/UCWRBNKY9rYCXuPdjh0Tsnxw";"https://youtu.be/JTygH6JB9lw";;0;;"CBJJ";;"BR";6827
"Camboinhas Jiu-Jitsu";;" + 55 21 99812-4428";"Av. Prof. Carlos Nelson Ferreira, 125, salas 218/219, Bairro: Camboinhas";"Niterói";"RJ";"24358-705";;"Brasil";"A mais nova Escola de Jiu-Jitsu da Região Oceânica de Niterói - RJ, localizada no Shopping Camboinhas Mall, tem foco no bem estar e na qualidade de vida !";;;;;;;;;;"Marcus Vinicius Mendes de Freitas";;;"https://www.facebook.com/RibeiroCamboinhas/";;;;0;;"CBJJ";;"BR";6293
"Palhares Jiu-Jitsu Brasil";;;"Rua Fagundes Varela n: 320, Chácara - Ingá";"Niterói";"RJ";"24210-520";;"Brasil";;;;;;;;;;;"Cesar Augusto Monteiro Palhares";;;;;;;0;;"CBJJ";;"BR";6540
"Pax Jiu-Jitsu Academy";"https://alessandrobjj.business.site/";" + 55 21 99934-0003";"Rua Visconde do Uruguai, 177 - Centro";"Niterói";"RJ";"24030-078";;"Brasil";"Lugar agradável, familiar, com pessoas do bem, excelente ensino técnico de jiu-jitsu, vc terá saúde física e mental, autoestima e autoconfiança, praticando jiu jitsu de verdade, são 100m2 de tatame, excelente acesso, muito fácil de chegar. Venha treinar com a gente e seja um campeão na vida! São mais de 14 anos formando campeões dentro e fora dos tatames!!! Oss";;;;;;;;;;"Alessandro Moreira Nunes";;;"https://www.facebook.com/alessandronunesbjj/";"https://www.youtube.com/channel/UCyiNK-JciQSB4-mhbydfzHw";"https://youtu.be/F4HzP36CyNQ";;0;;"CBJJ";;"BR";7142
"TBN Jiu-Jitsu";;" + 55 21 98885-7507";"Rua Saldanha Marinho n:94, Centro";"Niterói";"RJ";"24030-040";;"Brasil";"Uma Academia de Artes Macias, trazendo o Tradicional em suas modalidades!";;;;;;;;;;"Marcio da Cruz Costa";;"teambrothersniteroi94@gmail.com";"https://www.facebook.com/teambrothersbjjNiteroi/";"https://www.youtube.com/channel/UCu8DRTElDmAXNqBcFZvKAVg";"https://youtu.be/lXIOhoN_53Y";;0;;"CBJJ";;"BR";7129
"UNT";;;"Rua Dr. Paulo César n: 107 Sala 113, Icaraí";"Niterói";"RJ";"24220-401";;"Brasil";;;;;;;;;;;"Welton Ribeiro Soares";;;;;;;0;;"CBJJ";;"BR";7038
"3 Angle Jiu-jitsu Academy";;;"Av. Julio Antonio Thurler n: 757, Sobreloja Bairro:Olaria";"Nova Friburgo";"RJ";"28620-000";;"Brasil";;;;;;;;;;;"Luiz André Campos C. de Albuquerque";;;;;;;0;;"CBJJ";;"BR";7345
"GF Team Friburgo";;;"R. Vicente Sobrinho, 19 - Olaria";"Nova Friburgo";"RJ";"28623-400";;"Brasil";;;;;;;;;;;"Adriano Lima Rodrigues";;;;;;;0;;"CBJJ";;"BR";7065
"Grativol BJJS";;;"Rua Moise Amélio n: 38 Sobreloja, Centro";"Nova Friburgo";"RJ";"28613-210";;"Brasil";;;;;;;;;;;"Filipe das Neves Grativol";;;;;;;0;;"CBJJ";;"BR";7334
"BVH Jiu Jitsu";;;"Estrada João Venâncio dê Figueiredo, 691";"Nova Iguaçu";"RJ";"26020-000";;"Brasil";;;;;;;;;;;"Alex Sandro Gonçalves";;;;;;;0;;"CBJJ";;"BR";7750
"Dentinho Jiu-Jitsu";"https://fight-school-jiu-jitsu.ueniweb.com/";" + 55 21 99861-7017";"Rua Nilson Moura, 142";"Nova Iguaçu";"RJ";"26087-085";;"Brasil";"Incrível Centro de Jiu-jitsu na Cidade de Nova Iguaçu. Fique em forma, mais forte e mais confiante no nosso centro. Fight School Jiu-Jitsu possui treinador especializado e qualificado em uma ampla variedade de artes marciais. Se você deseja aprender jiu-jitsu, defesa pessoal ou desenvolver suas atuais habilidades, estou confiante de que encontrará uma aula adequada para seu estilo em meu estúdio na cidade de Nova Iguaçu.";;;;;;;;;"Mon, Wed, Fri: 7:00pm-10:00pm";"Carlos Teodorio dos Santos";;"karlossensei@gmail.com";;;;;0;;"CBJJ";;"BR";7547
"GF Team Austin";;" + 55 21 97652-1214";"Rua Itagiba n: 48 Loja, Bairro: Mariléia";"Nova Iguaçu";"RJ";"26086-090";;"Brasil";;;;;;;;;;;"Emerson Ferreira Faria";;;"https://www.facebook.com/GFTeam.austin/";;;;0;;"CBJJ";;"BR";7075
"Game Fight Paraiba do Sul";;;"Rua Zilda Torres de Castro n: 46 casa 01, Lava Peis";"Paraiba do Sul";"RJ";;;"Brasil";;;;;;;;;;;"Everton Damasceno Guimarães";;;;;;;0;;"CBJJ";;"BR";5925
"Infight Paraiba do Sul";;;"Ladeira do Volante n:107, Bairro: Volante";"Paraiba do Sul";"RJ";;;"Brasil";;;;;;;;;;;"Rogerio Poggio de Castro";;;;;;;0;;"CBJJ";;"BR";7223
"J.R Lopes Jiu-Jitsu";;;"Estrada Manoel Walter Bechtlufft n: 333, Castelo São Manoel Bairro: Correas";"Petrópolis";"RJ";;;"Brasil";"O Jiu-Jitsu trás consigo uma filosofia voltada ao equilíbrio do corpo e da alma e orienta essa prática no cotidiano, buscando também despertar indivíduos mais seguros e autoconfiantes. O objetivo deste esporte é desenvolver reflexos físicos, emocionais e espirituais, detectando medos e limitações, em busca de caminhos positivos. O confronto pessoal exige o encontro do equilíbrio, para que o aluno seja um vencedor de si mesmo, vencendo primeiramente seus próprios limites. Quanto maior a harmonia e a sintonia entre corpo e mente, maior a autoconfiança, o autocontrole, a autoestima e a fé. A disciplina que o jiu-jitsu exige faz parte da filosofia de vida que deve estar sempre voltada para a evolução, confiança e poder. O autocontrole e autoconfiança são estimulados através da implicação dos exercícios físicos e mentais. A melhor maneira de superar seus limites é quando sua mente está positiva e voltada para o seu potencial. Somente estando com o pensamento positivo é que você conseguirá superar suas dificuldades. As técnicas de defesa desta luta são baseadas em forças de alavancas, que possibilitam que o praticante vença adversários mais fortes e pesados, isso traz uma sensação de superação e invencibilidade que se estende para vários setores da vida. O jiu-jitsu também canaliza a energia do aluno para o bem, colocando-o em um ambiente saudável, onde existem fortes laços de amizade e companheirismo, podendo inclusive tirá-lo de uma vida improdutiva e até das drogas. O jiu-jitsu trabalha o corpo e a mente com disciplina e respeito. \""Violência não, Jiu-Jitsu sim.\""";;;;;;;;;;"Jose Roberto Lopes";;;"https://www.facebook.com/Equipe-JR-Lopes-Jiu-Jitsu-581965051981896/";;;;0;;"CBJJ";;"BR";6717
"Academia Sankaco de Jiu-Jitsu";;;"Rua Atilio Marotti n: 1020, Quarteirão Brasileiro";"Petrópolis";"RJ";"25680-290";;"Brasil";;;;;;;;;;;"Irineu Ravelli Junior";;;;;;;0;;"CBJJ";;"BR";6929
"Clube Uchimata de Jiu-Jitsu";;;"Rua Hercides José Estrela n:666, Loteamento Samambaia";"Petrópolis";"RJ";"25710-265";;"Brasil";;;;;;;;;;;"Carolino Muniz";;;;;;;0;;"CBJJ";;"BR";264
"Gracie Petrópolis";;;"Rua Aureliano Coutinho n: 67, Cobertura";"Petrópolis";"RJ";"25625-000";;"Brasil";;;;;;;;;;;"Breno Martins Angelo";;;;;;;0;;"CBJJ";;"BR";6686
"Icon Jiu-Jitsu Team Petrópolis";;" + 55 24 98148-4564";"Rua Visconde de Taunay n:118 Castelo São Manuel, Correas";"Petrópolis";"RJ";"25720-200";;"Brasil";"Aprenda jiu jitsu moderno eficaz pra quem sonha em ser profissional essa é equipe certa icon e uma equipe internacional aonde tem os melhores professores";;;;;;;;;;"Maurio Ferreira Martins";;"maurioferreira@yahoo.com.br";"https://www.facebook.com/iconteampetropolis/";"https://www.youtube.com/channel/UC5Ynf8933No-fW22Zkv8mPw";"https://youtu.be/3jbJOytmQL8";;0;;"CBJJ";;"BR";6370
"Team JC Brazilian Jiu-Jitsu";;;"Rua Perônio Américo n: 810, Vila Felipe";"Petrópolis";"RJ";"25635-380";;"Brasil";;;;;;;;;;;"Irineu Ravelli Junior";;;;;;;0;;"CBJJ";;"BR";6275
"Academia ADR Jiu-Jitsu";;" + 55 21 98300-5149";"Rua Dom Bosco, 88 - Sampaio";"Rio de Janeiro";"RJ";"20961-040";;"Brasil";;;;;;;;;;;"Sergio Leandro Meinick Braga";;;"https://www.facebook.com/jiujitsuadr/";;;;0;;"CBJJ";;"BR";6596
"Academia SBA - Behring Barramares";"https://sbajj.com/";" + 55 21 97228 7384";"Av. Lucio Costa, 3300 (Tatame) - Barra da Tijuca";"Rio de Janeiro";"RJ";"22630-010";;"Brasil";"The SBA is a Jiu-Jitsu association led by Master Sylvio Behring, an 8th degree red and black belt. The association uses Jiu-Jitsu as a tool for transforming society and is present on 4 continents.";"https://sbajj.com/wp-content/uploads/2019/09/Sylvio-Behring-Association-BG-White.png";;;;;;;;;"Mario Luiz Souza";;"behringbarramares@gmail.com";;;;;0;;"CBJJ";;"BR";7080
"Brazilian Fight - Cachambi Prof João Claudio";;" + 55 21 98339-7683";"Rua Dr Ferrari, 115 - Todos os Santos";"Rio de Janeiro";"RJ";"20770-005";;"Brasil";;;;;;;;;;;"João Claudio Lima Soares";;"studiodelutasjc@gmail.com";"https://www.facebook.com/EquipeJoaoClaudioJiuJitsuBrazilianFightTeam/";;;;0;;"IBJJF, CBJJ, FJJRIO, CBJJO, FJJO, LERJJI, CBLA, FBERJ, CREF/RJ";;"BR";7111
"Action Jiu-Jitsu";"https://www.actionbjj.com/";" + 55 21 98272-2997";"Av. Jorn. Ricardo Marinho, 457 - Barra da Tijuca";"Rio de Janeiro";"RJ";"22631-000";;"Brasil";"Marcus Meira, besides being a Black Belt and master of Jiu-Jitsu, he has a degree in Advertising and has specializations in Marketing and Journalism. The school's vision is not only based on martial arts, but also that the student is a client, in which the school, which is a business, must provide an excellent service. The combination of respect and affection of martial arts mixed with professionalism and the need to deliver the best service, make our school gain space in the scene of struggles and very satisfied students.";;;;;;;;;;"Marcus Meira";;;"https://www.facebook.com/actionjiujitsubjj/";;;;0;;"CBJJ";;"BR";6769
"Alexandre Papa";;;"Rua Carmem Miranda numero 60 Jardim Guanabara";"Rio de Janeiro";"RJ";"21931-080";;"Brasil";;;;;;;;;;;"Alexandre Barroso de Almeida";;;;;;;0;;"CBJJ";;"BR";7609
"Andre Santos Brazilian Jiu-Jitsu";;;"Av Getúlio Vargas, 1601 - 2° andar - Centro";"Nilópolis";"RJ";"26510-014";;"Brasil";;;;;;;;;;;"Andre Luiz Daniel Santos";;;;;;;0;;"CBJJ";;"BR";6794
"ANJJA";;;"Rua General Polidoro n: 39/204, Bairro: Botafogo";"Rio de Janeiro";"RJ";"22280-004";;"Brasil";;;;;;;;;;;"Alesandro de Oliveira Nascimento";;;;;;;0;;"CBJJ";;"BR";6718
"Belt Academy";;;"Av. Epitacio Pessoa n: 2142/403, Bairro: Ipanema";"Rio de Janeiro";"RJ";"22411-072";;"Brasil";;;;;;;;;;;"Luiz Antônio Nunes de Oliveira Filho";;;;;;;0;;"CBJJ";;"BR";7072
"BJJ Galvão";;;"Rua Otávio Ascoli n: 280 sala 6, Centenário";"Duque de Caxias";"RJ";"25030-040";;"Brasil";;;;;;;;;;;"Carlos Alberto Regis Galvão";;;;;;;0;;"CBJJ";;"BR";6381
"Brota Campeão";;" + 55 21 99275-3675";"Rua Carlos Xavier - Campo do Falcon, Bairro: Oswaldo Cruz";"Rio de Janeiro";"RJ";;;"Brasil";"A Equipe Brota Campeão é um projeto fundado em 05 de julho de 2010 e seu principal CT (Centro de Treinamento) fica em um espaço no Centro Social da Rua Carlos Xavier, mais conhecido como Campo do Falcon no bairro de Oswaldo Cruz na Zona Norte do Rio de Janeiro. No início, contava com dez alunos e hoje conta com mais de 100 atletas. Ao longo destes sete anos, e Equipe se filiou as principais federações de Jiu-Jitsu como a FJJ-Rio, FJJD, a CBJJD, a CBJJO e a SJJSAF etc. e consagrou alguns campeões regionais e nacionais. Assim como outras equipes da Zona Norte, as origens da Equipe Brota Campeão estão no Grande Mestre Oswaldo Baptista Fadda, e tem nas figuras do Professor Norberto Lourenço (Responsável Técnico) e o do Sensei Antônio Ângelo (Mestre) como seus principais representantes. Hoje a equipe conta também com os professores Carlos Alexandre Pereira (CT Penha), Gleidson Mendes de Góes (CT Anchieta), José Gledson da Silva Costa (CT Vila Valqueire), Fernando Bruno C. Izabel (Conselheiro), Osmar de Oliveira Cruz (CT Piabetá), Adriano Bastos Batista (Petrópolis), além do instrutor Ubirajara Araújo (CT Nova Iguaçu) que são responsáveis ou corresponsáveis por seus respectivos centros de treinamento dando continuidade ao ensino da Arte Suave com o principal lema da Brota que é “Mais do que uma Equipe, uma Família”.";;;;;;;;;;"Norberto Soares Lourenço";;"equipebrotacampeao@gmail.com";"https://www.facebook.com/BrotaCampeaoJiuJitsu/";"https://www.youtube.com/channel/UC97qNE5QAA5SMGWvk0u2svQ";"https://youtu.be/7Qos9Vpe7LM";;0;;"CBJJ, FJJ-Rio, FJJD, CBJJD, CBJJO, SJJSAF";;"BR";7556
"Burns BJJ";;;"Rua Evilasio Silva n: 121, bairro: Fonseca";"Rio de Janeiro";"RJ";;;"Brasil";;;;;;;;;;;"Herbert Mitchell Pontes Burns";;;;;;;0;;"CBJJ";;"BR";7058
"Carlson Gracie Leme";;" + 55 21 96417-5807";"Ladeira Ari Barroso n: 1 3 andar, Bairro: Leme";"Rio de Janeiro";"RJ";"22010-060";;"Brasil";;;;;;;"Muay Thai, Wrestling";;;;"Rodrigo da Costa Totti";;"r.totti@hotmail.com";"https://www.facebook.com/carlsongracieleme/";;;;0;;"CBJJ";;"BR";6582
"Charlie Brown Team";;;"Travessa Libânia, 47 - Cruzeiro do Sul";"Mesquita";"RJ";"26551-140";;"Brasil";;;;;;;;;;;"Vinicius dos Santos Fonseca";;;"https://www.facebook.com/Charlie-Brown-Team-139600009450689/";;;;0;;"CBJJ";;"BR";7088
"CL Team";;;"Rua Maranhão n: 196 casa 7, Bairro: Meier";"Rio de Janeiro";"RJ";"20720-230";;"Brasil";;;;;;;;;;;"Cassio Lisboa da Costa Junior";;;;;;;0;;"CBJJ";;"BR";6225
"CMT12 Escola de Lutas";"https://cmt12.com.br/";;"Rua Sidney, 96 - Praça Guilherme da Silveira";"Rio de Janeiro";"RJ";"21875-030";;"Brasil";"A Clayton Mangueira Team é a melhor escola de lutas da região. A CMT12 foi criada pelo Mestre Clayton Mangueira. Na CMT12 você aprende e mantém seu condicionamento físico no Boxe, Muay Thai, MMA, Luta Livre, Luta Olímpica e Jiu Jitsu. Escola de lutas em Bangu, Rio de Janeiro. Situada na praça Guilherme da Silveira, em frente à estação de trem de nome homônimo. O ano é 1998, Clayton Mangueira agora se torna Grau Preto de Muay Thai - 12º Kahn Sib Song - ano também de sua conquista da Copa BUDOKAN de Luta Livre. E é percebendo sua grande expertise em aulas das modalidades Muay Thai e Luta Livre, que Clayton decide inaugurar seu projeto ""Clayton Mangueira Team - CMT12"". Em pouco tempo, seus muitos atletas começaram a participar de competições de Muay Thai da Confederação Brasileira e também da Liga Brasileira. Na LUTA LIVRE, a CMT12 participou de diversas competições como Copa BUDOKAN, Copa Cyclone, Copa Rip Dorey, Campeonatos Estaduais, Brasileiros, NAGA – North America Grappling Association e ADCC - Abu Dhabi Combat Club Submission Wrestling World Championship - por exemplos. A equipe migrou também para competições de Vale Tudo (MMA - Mixed Martial Arts) e participou de inúmeros eventos não só brasileiros como mundiais! Participação expressiva em grandes eventos como: IVC - International Vale Tudo Championship, Jungle Fight Championship, Face to Face, WFE, WOCS, Fury Fight, Importal, Shooto, Rings, Fights Night, M-1 e Akhamat, LS-70 (Rússia), Arena Fight (Argentina), Pride (Japão), UFC além de inúmeros títulos nacionais e internacionais em Luta Olímpica. Nos dias atuais a equipe vem participando de competições de Boxe e Beachboxing e já vem conquistando vitórias importantes. O nosso lema é: ""A oportunidade faz o campeão"".";"https://cmt12.com.br/img/003.jpg";;;;;"Boxing, Muay Thai, MMA, Wrestling, Olympic Wrestling ";;;;"Clayton Mangueira";;"claytonmangueira@gmail.com";"https://www.facebook.com/claytonmangueira12";"https://www.youtube.com/channel/UCT8vyVTRJJskPAs2VxV5A1Q/";"https://youtu.be/BcamIsdFcRM";;0;;"CBJJ";;"BR";7221
"CORE BJJ";;;"Av. Dom Helder Camara n: 2066, Cid. Pol. bloco 04 - Jacarezinho";"Rio de Janeiro";"RJ";"21050-455";;"Brasil";;;;;;;;;;;"Sérgio Ignacio";;;;;;;0;;"CBJJ";;"BR";6222
"Dojo Mestre Alfredo Marques";;;"Rua Antonio Rego n: 226 Frente, Olaria";"Rio de Janeiro";"RJ";"21021-262";;"Brasil";;;;;;;;;;;"Alfredo Marques da Silva Neto";;;;;;;0;;"CBJJ";;"BR";6665
"EH Jiu-Jitsu Academy";;;"Rua da candelária n: 86 3º andar, Centro";"Rio de Janeiro";"RJ";"20091-020";;"Brasil";;;;;;;;;;;"Amelio Arruda Camara";;;;;;;0;;"CBJJ";;"BR";5713
"Equipe Aliados";;" + 55 21 98614-4209";"Rua Prefeito José de Moraes Dias lote 28 qd BB, Parque Paraído";"Rio de Janeiro";"RJ";;;"Brasil";"Equipe fundada sob a liderança dos mestres Arlans Maia da Base Jiu-Jitsu, Vasco Bento da VBT Jiu-Jitsu, Laerte Barcelos Jiu-Jitsu, e o prof.Luciano Mendes.";;;;;;;;;;"Vasco Bento Filho";;"aliadosjiujitsu@gmail.com";"https://www.facebook.com/aliadosjiujitsu/";;;;0;;"CBJJ";;"BR";6785
"Equipe Arte Leve";;" + 55 21 97264-5447";"Avenida Princesa Isabel n: 150 sala 501, Copacabana";"Rio de Janeiro";"RJ";"22011-010";;"Brasil";;;;;;;"Judo, Muay Thai, MMA";;;;"Hilton Luiz Mascarenhas";;"equipe.arteleve@gmail.com";"https://www.facebook.com/artelevebjj/";;;;0;;"CBJJ";;"BR";53
"Equipe FJU BJJ";;;"Av. Segal n: 40, Del Castilho";"Rio de Janeiro";"RJ";"20771-590";;"Brasil";;;;;;;;;;;"Celio Caneca";;;;;;;0;;"CBJJ";;"BR";7093
"Equipe Gama Jiu-Jitsu";;" + 55 21 99512-7952";"Av. Ministro Ary Franco n: 1036, Bairro: Bangu";"Rio de Janeiro";"RJ";"21862-005";;"Brasil";;;;;;;;;;;"Rodrigo Souza da Gama";;;"https://www.facebook.com/Equipe-Gama-Jiu-Jitsu-553814721318837/";;;;0;;"CBJJ";;"BR";1069
"Equipe IBABJJ";;" + 55 21 96999-2541";"Rua Sylvio da Rocha Polis n: 751, Bairro: Barra da Tijuca";"Rio de Janeiro";"RJ";"22793-395";;"Brasil";;;;;;;;;;;"Marcos Vinicius Manhães da Costa";;;"https://www.facebook.com/ibabjj/";;;;0;;"CBJJ";;"BR";7087
"Equipe Lebeis";;" + 55 21 98181-4404";"Av. Rio Branco n: 120/2 andar, Centro";"Rio de Janeiro";"RJ";"20050-030";;"Brasil";"Academia localizada no prédio da associacao dos empregados do comercio do Rio de Janeiro, com ótima estrutura, sala de musculação, studio de pilates, dojo, sala de massagem e estética, ginásio para prática de ginástica localizada, step, gap, futsal, basquete, vôlei. Banheiros com armários com chave. Entre outros. Aulas de Judô, Jiu-jitsu, Muay Thai, Aikido, Krav- Maga e Jump. Venha nos conhecer.";;;;;;"Judo, Muay Thai, Aikido, Krav-Maga";;;;"Fernando Lebeis Pires";;"equipelebeis@gmail.com";"https://www.facebook.com/equipelebeis/";"https://www.youtube.com/channel/UChDfP088hYDGYn4hfLRhE3A";"https://youtu.be/WAKinyGF8H4";;0;;"CBJJ";;"BR";6703
"Equipe Sensei Gabu";;;"Rua Joana Fontoura n: 74, Bonsucesso";"Rio de Janeiro";"RJ";"21060-610";;"Brasil";;;;;;;;;;;"Gabriel Gomes de Souza";;;;;;;0;;"CBJJ";;"BR";7042
"Equipe WCL";;;"Rua Luiz Carlos Ferreira Tirado n: 148, Bairro: Cidade Nova";"Itaperuna";"RJ";"28300-000";;"Brasil";;;;;;;"MMA, Boxing, Muay Thai";;;;"Wanderley Cordeiro de Lima";;;"https://www.facebook.com/Equipewcl/";;;;0;;"CBJJ";;"BR";7113
"Escola de Jiu-Jitsu Bruno Alves";"http://escolabrunoalves.com.br/";" + 55 22 99868-9644";"Rua Primeiro de Maio, 1310 - Niterói";"Itaperuna";"RJ";"28300-000";;"Brasil";"Nosso ambiente é mais do que uma academia, é um local de encorajamento e mudança de hábito. Nosso objetivo é proporcionar qualidade de vida através do Jiu-Jitsu. Com a evolução da modalidade, hoje possuímos turmas específicas para todas as idades, níveis e propósitos, dando aos alunos benefícios físicos e mentais que nenhum outro esporte consegue proporcionar. Visão: Ser mais que uma academia, um ambiente que transforma positivamente a vida de crianças e adultos. Missão: Oferecer os benefícios únicos do Jiu-Jitsu a todos, especialmente as crianças. Valores: Integridade, Ensino, Aperfeiçoamento Profissional e Família.";;"http://escolabrunoalves.com.br/kids-6-a-12/";"Kids 7 - 12 - A aula é feita de forma lúdica, conforme eles vão tendo uma melhor compreensão os fatores como disciplina e coordenação começam a ter um maior peso, até chegarmos no foco da parte técnica que acontece conforme os alunos evoluem dentro do programa de ensino. Aqui eles aprendem não só a ter limites, como começam a entender o significado da disputa, do perder e ganhar, o incentivo é para se extrair o melhor de cada um e trazer a eles uma auto-estima e auto- confiança essenciais para que se desenvolvam como crianças seguras e disciplinadas.";;;;;;;"Bruno Alves Ferreira Nogueira";;"contato@escolabrunoalves.com.br";"https://www.facebook.com/escoladejiujitsuba/";;;;0;;"CBJJ";;"BR";6153
"Escola de Luta Cassius Marcelo";;;"Rua Araújo Leitão n: 607 bl 3 / 402, Engenho Novo";"Rio de Janeiro";"RJ";"20715-310";;"Brasil";;;;;;;;;;;"Cassius Marcelo Nascimento Souza Lima";;;;"https://www.youtube.com/user/cassius537/";"https://youtu.be/gBisZH2Kya0";;0;;"CBJJ";;"BR";6008
"Escola de Lutas FF";;;"Praça da Concórdia, Jacarezinho";"Rio de Janeiro";"RJ";"20973-090";;"Brasil";"Núcleo da Escola de Lutas Fábio Florêncio sob o comando do Professor Mariano PQD (Faixa Preta 2 Graus). Desde 2010 estamos ensinando o jiu-jitsu brasileiro para crianças, jovens e adultos na comunidade do Jacarezinho.";;;;;;;;;;"Fabio Florencio Alves";;;"https://www.facebook.com/EscolaDeLutasFFJacarezinho/";;;;0;;"CBJJ";;"BR";7401
"Essence BJJ";;;"Rua José Rascão S/N, São José";"São Pedro da Aldeia";"RJ";"28940-000";;"Brasil";;;;;;;;;;;"Ricardo Alberto Tavares Viana";;;;;;;0;;"CBJJ";;"BR";6378
"Familia Andre Marola";;;"Rua Duquesa de Bragança n: 15 Loja, Grajaú";"Rio de Janeiro";"RJ";"20540-300";;"Brasil";;;;;;;;;;;"Alex Barros de Oliveira";;;;;;;0;;"CBJJ";;"BR";7023
"Familia Bangu BJJ";;;"Estrada Porto Nacional n: 54, Bairro: Bangu";"Rio de Janeiro";"RJ";"21870-380";;"Brasil";;;;;;;;;;;"Fábio da Silva Andrade";;;;;;;0;;"CBJJ";;"BR";6889
"Fight for a Kid";;;"Estrada de Curicica n: 43 Loja 4, Bairro: Curicica";"Rio de Janeiro";"RJ";"22710-560";;"Brasil";;;;;;;;;;;"Maxsuel Lourenço";;;;;;;0;;"CBJJ";;"BR";7162
"Fraternity Brazilian Jiu-Jitsu";;" + 55 21 97336-1592";"Rua Marechal Goes Monteiro, 842 - Gramacho";"Duque de Caxias";"RJ";"25035-740";;"Brasil";;;;;;;;;;;"Carlos Eduardo Rabelo Monçôres";;;"https://www.facebook.com/fraternitybjj/";;;;0;;"CBJJ";;"BR";5855
"Gade HQ NU";;;"Rua João Gregório Galindo, 120";"Angra dos Reis";"RJ";"23934-695";;"Brasil";;;;;;;;;;;"Emmanuel Brollo Junior";;;;;;;0;;"CBJJ";;"BR";7086
"Galo Association BJJ";;" + 55 21 97015-1154";"Rua Professora Carmem de Freitas Salgado, 158 - Califórnia";"Nova Iguaçu";"RJ";"26220-470";;"Brasil";;;;;;;;;;;"Wilson Alves da Silva Júnior";;"galoassociationbjj@gmail.com";"https://www.facebook.com/Galo-Association-BJJ-111684543703187/";;;;0;;"CBJJ";;"BR";7443
"Game Fight";"https://www.gamefightbjj.com.br/";" + 55 21 98374-6786";"Av. Prefeito Dulcidio Cardoso n: 1700, Barra da Tijuca";"Rio de Janeiro";"RJ";"22640-085";;"Brasil";"Fundada em 1999 a equipe GAME FIGHT, Fruto da Carlson Gracie team, tendo como idealizador o Mestre Vinícius Amaral, onde teve seu início em Jacarepaguá na academia uno game na Rua Araguaia. Tendo assim sua primeira experiência como Professor de JiuJitsu ainda na faixa marrom. As aulas eram realizadas na academia do professor de judo Ivan luna. Mais à frente Vinicus Amaral e Vinícius Chagas abrem uma sede própria  Game Fight na Estrada do pau ferro em Jacarepaguá, com dois grandes e confortáveis Dojos. Com o sucesso da equipe Vinicus Amaral passou a abrir novas filiais. Abrindo a Game Fight méier na academia contratempo na rua Piauí.  E logo após, Vinicus Amaral e sua esposa Katia Amado abrem  seu próprio negócio em Duque de caixas, uma academia com diversas atividades físicas. Inaugurando Academia  Pride Gym em 04/07/2001,que passou a ser conhecido como quartel general da Game Fight. Hoje a Game Fight tem 149 escolas espalhadas pelo Mundo.";"https://static.wixstatic.com/media/032cdd_b54d5f3b6e78432eaba2e17f879da445~mv2.jpg/v1/fill/w_301,h_260,al_c,q_80,usm_0.66_1.00_0.01/Untitled.webp";;;;;;;;;"Vinícius Jorge Dubugras do Amaral";;"contatogamefightbjj@gmail.com";"https://www.facebook.com/viniciusamaralbjj/";;;;0;;"CBJJ";;"BR";6786
"Game Fight Usina";;;"Rua Conde de Bonfim n: 1393, Sobreloja Bairro: Usina";"Rio de Janeiro";"RJ";"20530-001";;"Brasil";;;;;;;;;;;"Vinícius Jorge Dubugras do Amaral";;;"https://www.facebook.com/Game-Fight-Usina-Bjj-576362333032607/";;;;0;;"CBJJ";;"BR";7192
"GF Team Santa Cruz";;" + 55 21 96422-1849";"Avenida Areia Branca n: 1871, Sobreloja - Bairro: Santa Cruz";"Rio de Janeiro";"RJ";"23525-002";;"Brasil";;;;;;;;;;;"Ajail Neves Braga Júnior";;"ajailnevesgfteam@gmail.com";"https://www.facebook.com/ajailneves/";;;;0;;"CBJJ";;"BR";5840
"GF Team Sepetiba";"https://gfteam-sepetiba.negocio.site/";" + 55 21 97579-1139";"Rua Augusto Sansão, 17 - Sepetiba";"Rio de Janeiro";"RJ";"23530-088";;"Brasil";;;;;;;;;;;"Fagner Cardoso de Lima";;"fagner.cardoso@hotmail.com";"https://www.facebook.com/Gfteamsepetiba/";;;;0;;"CBJJ";;"BR";6656
"Gimenes Team";;;"Rua Tharsis e Paula n: 435 casa 35, Fazenda Caxias";"Seropédica";"RJ";"23895-175";;"Brasil";;;;;;;;;;;"Marcio Silva Gimenes";;;;;;;0;;"CBJJ";;"BR";6070
"Goulart Team JJ - BR";;" + 55 21 96456-2383";"Rua Guararapes, 86 - Parque Sao Bernardo";"Belford Roxo";"RJ";"26167-020";;"Brasil";;;;;;;;;;;"Alex de Souza Goulart";;"goulartteam@gmail.com";"https://www.facebook.com/goulartteamjj/";;;;0;;"CBJJ";;"BR";5618
"Gracie Barra Bangu";;" + 55 21 96451-5786";"Rua Silva Cardoso: 846, Bangu";"Rio de Janeiro";"RJ";"21815-072";;"Brasil";"Escola Oficial Gracie Barra de Jiu-Jitsu e Defesa Pessoal em Bangu, RJ. ""Jiu-Jitsu Para Todos"". Venha nos fazer uma visita e participar de uma aula experimental gratuita.";;;;;;;;;;"Gabriel Araujo do Carmo";;"graciebarrabangu@gmail.com";"https://www.facebook.com/graciebarrabangu/";;;;0;;"CBJJ";;"BR";7015
"Gracie Barra Centro São Gonçalo";;" + 55 21 99956-2211";"Rua Salvatori 10 Loja 201, Centro";"São Gonçalo";"RJ";"24744-720";;"Brasil";"Nós ensinamos as pessoas a viver melhor e abraçar o estilo de vida do equilíbrio, da camaradagem e do crescimento pessoal através do jiu-jitsu!";;;;;;;;;;"Seidler Rodrigo Santos Ziser";;;"https://www.facebook.com/gbcentrosg/";"https://www.youtube.com/channel/UCtO3YdTNR50gHUbJX2enAkQ";"https://youtu.be/WRVOITii4DE";;0;;"CBJJ";;"BR";6995
"Gracie Barra Icaraí";"http://icarai.gbniteroi.com.br/";" + 55 21 97280-7883";"Rua Doutor Tavares Macedo n: 96 - 202/203, Bairro: Icarai";"Niterói";"RJ";"24220-211";;"Brasil";"A Gracie Barra Icaraí, Escola de Jiu-jitsu oficial Gracie Barra, foi fundada após o grande sucesso obtido com a abertura da Gracie Barra Santa Rosa em 2017. Nosso time sentiu a necessidade de crescer. E onde mais poderíamos instalar uma unidade senão no tradicionalíssimo bairro de Icaraí? Para isso, nosso time de sócios precisou ser reforçado. Além dos Professores de jiu-jitsu Mackson Câmara e Seidler Rodrigo, chegou à equipe o Marcos Freitas. Assim, em 12 de novembro de 2017 nasceu a Gracie Barra Icaraí Premium. Escola de Jiu-jitsu 100% alinhada com a filosofia e metodologia desenvolvidas pelo Mestre Carlos Gracie Jr. Nosso propósito é ser referência no ensino de excelência do Jiu-Jitsu em Niterói e assim, impactar positivamente a vida dos alunos, atletas e familiares através do Jiu-Jitsu.";"http://www.gbniteroi.com.br/icarai/wp-content/uploads/2019/01/logotipo_gbicarai-150x150.png";"http://icarai.gbniteroi.com.br/jiu-jitsu-infantil-em-icarai/";"Para atingir excelência em qualquer empreitada, é necessário um forte conjunto de valores e um caráter sólido que lhe conceda a perserverança para buscar os seus objetivos. O Programa GB Kids foi criado para proporcionar às crianças na faixa etária dos 3 aos 15 anos um ambiente que lhes permita experimentar e compreender valores essenciais como foco, disciplina, persistência, cooperação e respeito. Tudo isso sob supervisão e num ambiente seguro e ao mesmo tempo desafiador, que diariamente contribui para o amadurecimento. Assim, nossos pequenos não serão apenas campeões nos tatames, mas irão se tornar campeões na vida. A disciplina e excelência exigidos pelos nossos instrutores reflete positivamente nas crianças e adolescentes, que irão entender a importância de boa alimentação, da ajuda aos colegas, da dedicação, entre tantos outros valores presentes no Jiu-Jitsu GB.";"http://icarai.gbniteroi.com.br/jiu-jitsu-e-defesa-pessoal-feminina-em-icarai/";"Todas as aulas oferecidas na estrutura dos programas de Jiu-jitsu da Gracie Barra Icaraí são abertas para o público feminino. Como uma arte marcial desenvolvida para permitir que o mais fraco possa derrotar um adversário fisicamente mais forte, o Jiu-jitsu é perfeito para as mulheres que estão interessadas em aprender como se defender — e quais não estão? Os Programas da Gracie Barra, oferecidos pelas Gracie Barra Icaraí e Gracie Barra Santa Rosa, em Niterói, combinam um currículo de defesa pessoal abrangente, jiu-jitsu esportivo e muita atividade física, tudo elaborado de forma a simular ataques reais permitindo o desenvolvimento atlético das alunas interessadas. As aulas melhoram o seu nível de condicionamento físico geral possibilitando mais qualidade de vida, sem deixar nada a desejar às academias de ginástica. Na Gracie Barra Icaraí existem aulas especificamente concebidas especialmente para o público feminino com prevenção à violência contra as mulheres, e as “confraternizações” adicionam um benefício para os membros da Gracie Barra criando um forte vínculo entre a equipe.";;;;;"Seidler Rodrigo Santos Ziser";;"icarai@gbniteroi.com.br";"https://www.facebook.com/gbicarai/";;;;0;;"CBJJ";;"BR";6687
"Gracie Barra Miguel Pereira";;;"R. Maria José, 27 - Vila Margarida";"Miguel Pereira";"RJ";"26900-000";;"Brasil";;;;;;;;;;;"Ivanilson Luis da Silva";;;;;;;0;;"CBJJ";;"BR";7412
"Gracie Kore";"https://www.graciekore.com.br/";" + 55 21 3030-5673";"Av. das Américas, 8585- Barra da Tijuca";"Rio de Janeiro";"RJ";"22793-081";;"Brasil";"Gracie Kore Jiu-Jitsu não é apenas mais uma academia de jiu-jitsu. É fazer diferente. Retomar os valores do Jiu-Jitsu e entender que ele vai além. Além do esporte, além da arte marcial, além do lutador. É respeito, honra, persistência. É autoconhecimento, determinação, equilíbrio de corpo e mente. É sobre estilo de vida. Deixar um legado. É evolução, aprimoramento, técnica acima de força. É manter esse legado vivo, aprendendo com passado e passando para novas gerações. O Jiu-Jitsu une. Treinar com seu filho é dar a ele muito mais que uma habilidade. O Jiu-Jitsu ensina respeito, concentração, disciplina, parceria, superação. Treinar em família deixa os laços afetivos mais fortes. É permitir ser o exemplo que seu filho quer seguir. É saber que nunca é cedo ou tarde demais para começar. Não importa tamanho, força, idade ou gênero. O Jiu-Jitsu é para a vida.";"https://www.graciekore.com.br/wp-content/uploads/2019/08/logo_gracie.png";"https://www.graciekore.com.br/curso-presencial/";"O Bullying é um problema social frequente nas escolas do Brasil e do mundo. 1 em cada 10 estudantes são vítimas de agressões físicas e psicológicas que podem ter efeitos negativos no desenvolvimento da criança. Acreditamos no potencial do Jiu-Jitsu como ferramenta poderosa contra o bullying. O programa é destinado para crianças de 5 a 15 anos que vão vivenciar, na teoria e prática, simulações do cotidiano envolvendo bullying. O curso aborda 4 temas (posicionamento, postura, controle emocional e Jiu-Jitsu verbal) para estimular a autoconfiança e o autocontrole das crianças. Vamos combater o bullying juntos?";"https://www.graciekore.com.br/curso-presencial/";"Curso S.H.E. - Defesa pessoal feminina. A cada 2 segundos uma mulher é vítima de violência física ou verbal no Brasil. O Curso SHE de defesa pessoal feminina aborda técnicas psicológicas e práticas para melhorar essa realidade. Mulheres que têm uma postura confiante possuem mais chances de evitar situações de risco. Não é necessário nenhum tipo de preparo físico ou experiência com artes marciais. Uma simples técnica pode salvar a vida de uma pessoa em uma situação de perigo. O treinamento prepara você para se defender de situações potencialmente ameaçadoras e encarar o dia a dia com autoconfiança.";;;"https://www.graciekore.com.br/horarios/";"Mon-Fri: 6:30am-9:30pm; Sat: 8:00am-12:30pm";"Kyra Gracie";;"contato@graciekore.com.br";"https://www.facebook.com/graciekore/";;;;0;;"CBJJ";;"BR";7002
"Gracie Terra JJ";;;"Rua Prudente de Morais n: 386, Ipanema";"Rio de Janeiro";"RJ";"22420-040";;"Brasil";;;;;;;;;;;"Vitor Gabriel Terra da Silva";;;;;;;0;;"CBJJ";;"BR";6234
"Horto Jiu-Jitsu";;;"Rua Modesto Brocos, 9 - Horto-Jardim Botânico";"Rio de Janeiro";"RJ";"22460-300";;"Brasil";;;;;;;;;;;"Edmilson de Souza Messias";;;"https://www.facebook.com/hortojiujitsu/";;;;0;;"CBJJ";;"BR";7413
"Karkara BJJ Brasil";;;"Rua Lino Teixeira n: 202 fundos, Bairro: Jacaré";"Rio de Janeiro";"RJ";"20970-007";;"Brasil";;;;;;;;;;;"Robson Pinheiro Dantas";;;;;;;0;;"CBJJ";;"BR";7554
"Kronos BJJ";;;"Rua Comandante Aristides Garnier n: 452, apt 201 Bairro: Penha Circular";"Rio de Janeiro";"RJ";"21221-180";;"Brasil";;;;;;;;;;;"Leonardo de Souza Ayres Peçanha";;;;;;;0;;"CBJJ";;"BR";6521
"Marco Tulio Sarkis";;;"Rua Gustavo Sampaio n: 74, Bairro: Leme";"Rio de Janeiro";"RJ";"22010-010";;"Brasil";;;;;;;;;;;"Marco Túlio Sarkis";;;;;;;0;;"CBJJ";;"BR";6643
"Morro dos Campeões";;;"Rua Santo Amaro: 349, Bairro: Gloria";"Rio de Janeiro";"RJ";"22211-225";;"Brasil";"Um projeto de Jiu-Jitsu que se iniciou há 17 anos na comunidade SANTO AMARO, no bairro do Catete. Um celeiro de campeões.";;;;;;;;;;"José Carlos Dias";;;"https://www.facebook.com/santoamarobjj/";;;;0;;"CBJJ";;"BR";7559
"New Prime JJ";;;"Rua Diogo Correia n: 06, Bairro: Bonsucesso";"Rio de Janeiro";"RJ";;;"Brasil";;;;;;;;;;;"Antônio Ramon Fernandes da Costa";;;;;;;0;;"CBJJ";;"BR";6803
"Nova União LRJ";;" + 55 21 99117-3101";"Rua Alice n: 160, Bairro: Laranjeiras";"Rio de Janeiro";"RJ";"22241-020";;"Brasil";"""Jiu jitsu + performance + life style"". Filial da equipe Nova União, liderado pelos faixas pretas NU IBJJF CBJJ Cleber ""Clebinho"" Ferreira e Sérgio Capella";;;;;;;;;;"Cleber Ferreira, Sergio Capella";;;"https://www.facebook.com/laranjeirasjiujitsuclub/";;;;0;;"CBJJ";;"BR";7033
"Nova União Rafael Carino";;" + 55 21 2557-5266";"Rua das Laranjeiras n:82, Bairro: Laranjeiras";"Rio de Janeiro";"RJ";"22240-000";;"Brasil";;;;;;;;;;;"Rafael Carino";;;"https://www.facebook.com/NovaUniaoLaranjeiras/";;;;0;;"CBJJ";;"BR";7405
"Nova União Vila da Penha";;;"Av. Mereti, 1475, Vila da Penha";"Rio de Janeiro";"RJ";"21211-007";;"Brasil";;;;;;;;;;;"Carlos Vinicius Pereira dos Santos";;;"https://www.facebook.com/novauniao.viladapenha/";;;;0;;"CBJJ";;"BR";6035
"Paulo Filho World Team";;;"Rua Visconde de Araguaia, 866 - Santa Cruz";"Rio de Janeiro";"RJ";"23515-170";;"Brasil";;;;;;;;;;;"Paulo Fernando S. Leite Filho";;;;;;;0;;"CBJJ";;"BR";7457
"Play Fight Team (PFT)";;;"Rua Belmiro de Souza n: 12, Cheche Aspa";"Rio de Janeiro";"RJ";;;"Brasil";;;;;;;;;;;"Glimario João dos Santos Junior";;;;;;;0;;"CBJJ";;"BR";7555
"Pr1mera";"https://www.pr1meragym.com.br/";" + 55 21 3082-6334";"Estrada da Barra da Tijuca, 3940 - Itanhaga";"Rio de Janeiro";"RJ";"22641-005";;"Brasil";"A academia PR1MERA é mais que uma marca, é um conceito que traduz credibilidade e esforços contínuos para levar até você, nosso cliente, o melhor em excelência no atendimento e alto padrão em serviços que colocam a academia em lugar de destaque, legitimando a excelência em nossas ações direcionadas aos nossos clientes. Nossa academia conta com um local de aproximadamente 3.000 m² de área, totalmente climatizada, moderna infraestrutura e tecnologia esportiva de última geração, além de contar com amplo horário de funcionamento, incluindo finais de semanas e feriados. Nossa equipe é reconhecida por sua excelência em conhecimento técnico, uma vez que é composta de mestres que possuem diversos prêmios reconhecidos por profissionais altamente qualificados, e que buscam sistematicamente aperfeiçoamento, evidenciando, também, sua preocupação com as relações humanas, tornando o ambiente na academia agradável e familiar, o que reflete na satisfação de nossos clientes. Nosso maior objetivo é proporcionar aos alunos QUALIDADE DE VIDA, trazendo à sua rotina o bem-estar que faltava.";"https://static.wixstatic.com/media/256d16_46c629de5ece40178d3e223de776d191~mv2_d_2000_1698_s_2.png/v1/crop/x_0,y_188,w_2000,h_826/fill/w_213,h_88,al_c,q_85,usm_0.66_1.00_0.01/256d16_46c629de5ece40178d3e223de776d191~mv2_d_2000_1698_s_2.webp";;;;;;;"https://www.pr1meragym.com.br/c%C3%B3pia-hor%C3%A1rios";;"Renan dos Santos da Conceição";;"primeraoficial@gmail.com";"https://www.facebook.com/pr1meragym/";"https://www.youtube.com/channel/UCt9gltFd2vgoC6jI2HRAdqg";"https://youtu.be/5nOe2zrqsK8";;0;;"CBJJ";;"BR";6498
"Rad Jiu-Jitsu";;;"Rua São Clemente, 295 - Botafogo";"Rio de Janeiro";"RJ";"22260-007";;"Brasil";;;;;;;;;;;"Leonardo Dalcin Silva";;;;;;;0;;"CBJJ";;"BR";6941
"RD Champions BJJ";;" + 55 21 96583-5116";"Estrada do Colégio,1243 - Irajá,";"Rio de Janeiro";"RJ";"21235-280";;"Brasil";;;;;;;;;;;"Renato de Freitas Dominguez";;;"https://www.facebook.com/rdchampions1243/";;;;0;;"CBJJ";;"BR";7128
"Renzo Gracie Ipanema";;" + 55 21 96451-3374";"Rua Farme de Amoedo n: 75 loja 204, Ipanema";"Rio de Janeiro";"RJ";"22420-020";;"Brasil";;;;;;;;;;;"Áureo Trotte Couto";;;"https://www.facebook.com/renzogracieipanema/";;;;0;;"CBJJ";;"BR";7544
"Rilion Gracie Santa Cruz RJ";;;"Avenida Isabel n: 184 A - Santa Cruz";"Rio de Janeiro";"RJ";"23515-161";;"Brasil";;;;;;;;;;;"Jonas Jeferson dos Santos Freire";;;;;;;0;;"CBJJ";;"BR";6644
"Rivero BJJ";;" + 55 21 97015-5282";"Rua Piaui n: 205, Bairro: Todos os Santos";"Rio de Janeiro";"RJ";"20770-130";;"Brasil";"Matriz equipe de Jiujitsu RIVERO BJJ. Aqui você encontra aulas de JiuJitsu, judô, Muay thai e circuito funcional. Venha conhecer!";;;;;;"Judo, Muay Thai, Functional Circuit";;;;"Henrique Tadeu Rivero Y Rivero";;"henriquerivero13@gmail.com";"https://www.facebook.com/Henriqueriverobjj/";;;;0;;"CBJJ";;"BR";6637
"RJJC";;;"Rua Campo Belo n: 150, Laranjeiras";"Rio de Janeiro";"RJ";"22221-110";;"Brasil";;;;;;;;;;;"Gilson dos Santos Fernandes";;;;;;;0;;"CBJJ";;"BR";5827
"Rocinha Jiu Jitsu";;;"Travessa Esperança, 19 - Rocinha";"Rio de Janeiro";"RJ";"22451-262";;"Brasil";;;;;;;;;;;"Lenio Fortunato da Silva Filho";;;;;;;0;;"CBJJ";;"BR";4646
"RTS Brazilian Jiu-Jitsu";;" + 55 21 96418-3910";"Rua Lígia, 255 - Olaria";"Rio de Janeiro";"RJ";"21073-280";;"Brasil";"Academia com o verdadeiro Jiu Jitsu! Situada em olaria, zona Norte do Rio de Janeiro, as aulas contam com professores faixas preta 3°Dan, formados e diplomados pela academia Gracie Humaitá e formado em educação física. Venha aprender com professores";;;;;;;;;;"Priscila Almeida Bispo";;;"https://www.facebook.com/RTS-BJJ-RJ-337205050342012/";;;;0;;"CBJJ";;"BR";7047
"Soul Fighters Recreio";;" + 55 21 99962-5549";"Av. Miguel Antônio Fernandes, 751 - Recreio dos Bandeirantes";"Rio de Janeiro";"RJ";"22790-682";;"Brasil";"Aula de Jiu-Jitsu especializada. Jiu-Jitsu Educativo, Competitivo e acadêmico.";;;;;;;;;;"Alvaro Mansor Guarçoni";;"alvaroguarconi@gmail.com";"https://www.facebook.com/soulfightersrecreio/";;;;0;;"CBJJ";;"BR";6075
"Team Cappato";;" + 55 21 99218-0886";"Rua Mora, 1014 - 3 andar - Campo Grande";"Rio de Janeiro";"RJ";"23013-620";;"Brasil";"""Sem lutas não haverá vitória, sem incentivo não haverá vontade. Querer vencer significa já é ter percorrido metade do caminho."" OSS!";;;;;;;;;;"Sandro Soares Barbosa";;;"https://www.facebook.com/TEAMCAPPATO/";;;;0;;"CBJJ";;"BR";6186
"Team Alves Jiu-Jitsu";;" + 55 21 98476-6520";"Rua Guarani n: 1.161 - Piabetá";"Magé";"RJ";"25903-587";;"Brasil";"Aula de Jiu Jitsu Infantil, Adulto e Feminino!";;;;;;;;;;"Demerson Alves da Silva";;"teamalvesjiujitsu@gmail.com";"https://www.facebook.com/Teamalvesjiujitsu";;;;0;;"CBJJ";;"BR";7211
"Team Evangelista";;;"Rua Maués, LT. 45 QD. 06, Brás de Pina";"Rio de Janeiro";"RJ";"21235-650";;"Brasil";"Equipe criada pelos irmãos Ricardo Evangelista e Bruno Evangelista no intuito de mostrar nossos trabalhos e competições no jiu-jitsu.";;;;;;;;;;"Ricardo Ferreira Evangelista";;;"https://www.facebook.com/evangelistateambjj/";;;;0;;"CBJJ";;"BR";7006
"Team Fonseca";;;"Rua Flamarion n: 348, Jardim Carioca";"Rio de Janeiro";"RJ";"21921-480";;"Brasil";"O objetivo da Equipe team Fonseca é contribuir para a criação de condições e oportunidades para as crianças da comunidade do Guarabu, dendê e toda ilha do governador, a fim de que possam desenvolver plenamente o seu potencial como pessoas, cidadãos e futuros profissionais. A atividade esportiva, por meio do ensino da arte milenar do Jiu-Jitsu, tem como foco principal o desenvolvimento humano. Estimulando o crescimento pessoal desses jovens por meio do esporte, além de buscar a formação de atletas talentosos, que talvez possam até representar o País com orgulho e êxito nas competições pelo mundo afora, estaremos contribuindo para uma sociedade melhor.";;;;;;;;;;"Lazaro Fonseca do Nascimento";;;"https://www.facebook.com/TeamfTeamfonseca/";;;;0;;"CBJJ";;"BR";6199
"Team Joel Oliveira";;" + 55 21 97441-2118";"Av. Pastor Martin Luther King Jr. n: 12785, Bairro: Pavuna";"Rio de Janeiro";"RJ";"21520-001";;"Brasil";;;;;;;;;;;"Joel Oliveira de Lima";;;"https://www.facebook.com/Team-Joel-OliveiraGFTEAM-Fase1-Pavuna-868943826612641/";;;;0;;"CBJJ";;"BR";6887
"Team Nelson Neves BJJ";;;"Praça Nilo Peçanha n: 97 sala 207 e 208, Bairro: Nilópolis";"Nilópolis";"RJ";"26520-340";;"Brasil";;;;;;;;;;;"Andre Luiz Gomes Batista";;;;;;;0;;"CBJJ";;"BR";6987
"The Cross BJJ";;;"Rua Maria Antônia n: 233, Bairro: Engenho Novo";"Rio de Janeiro";"RJ";"20710-260";;"Brasil";;;;;;;;;;;"Carla Cavalcante Roberto";;;;;;;0;;"CBJJ";;"BR";7274
"Titanes BJJ Brasil";"https://titanesbjj.com/";;"Rua Adhemar Bebiano n: 4.040, Engenho da Rainha";"Rio de Janeiro";"RJ";"20765-370";;"Brasil";"Con una vida dedicada a la enseñanza, crecimiento y desarrollo del Jiu-Jitsu Brasileño y con el sueño de unir a las escuelas, profesores e instructores que ha ido formando como profesor de este noble arte a lo largo de los años, André Crispín creó el equipo TITANES BJJ INTERNACIONAL. TITANES BJJ se diferencia de los demás equipos por ser una asociación de escuelas con profesores e instructores de un mismo profesor, y no un equipo de un solo profesor. La unión de estos expertos crea un equipo que desarrolla un entrenamiento profesional, responsable y pautado con los métodos tradicionales de enseñanza del auténtico Jiu-Jitsu Brasileño. Nuestros profesores e instructores están capacitados para crear programas individualizados con los que cualquier persona pueda aprender, de una manera responsable, los secretos y conceptos del Jiu – jitsu Brasileño; desde niños hasta adultos, hombres y mujeres y abarcando los diversos enfoques de un arte marcial moderno: como deporte de competición o como actividad física para mejorar la salud y la condición física o para las personas que quieran aprender un método eficaz de defensa personal. Cada alumno que lleva el escudo TITANES BJJ, representa con honor quienes somos, nuestra unión y nuestra ideología. Por ser todos de un mismo linaje entrenamos como un equipo, pero luchamos y competimos como una familia.";"https://titanesbjj.com/wp-content/uploads/2018/05/TITANES-ESLOGAN2-400.png";;;;;;;;;"Andre Luis Silveira Crispin";;;;;;;0;;"CBJJ";;"BR";7464
"Top Tiger Team";;;"Rua Santa Tais n: 61 casa, Bairro: Freguesia";"Rio de Janeiro";"RJ";"22745-230";;"Brasil";;;;;;;;;;;"Marcelo Leonardo Palazzo";;;;;;;0;;"CBJJ";;"BR";6728
"Triunfight Jiu-Jitsu";;;"Estrada dos Bandeirantes n: 6089C, Igreja da Cidade - Curicica";"Rio de Janeiro";"RJ";"22780-081";;"Brasil";;;;;;;;;;;"Valdenir Braun";;;;;;;0;;"CBJJ";;"BR";6155
"X-Fighting Jiu-Jitsu Submission Team";;;"Av. Dom Helder Camara n: 3840 - Galpão 1, Bairro: Del Castilho";"Rio de Janeiro";"RJ";"20771-003";;"Brasil";;;;;;;;;;;"Ricardo de Azevedo Martins";;;;;;;0;;"CBJJ";;"BR";6939
"Academia Gerando Vida";;" + 55 21 3583-6843";"Av. Expedicionário Bittencourt Rodrigues da Costa Lote: 8 Quadra 20, Bairro: Maria Paula";"São Gonçalo";"RJ";"24756-430";;"Brasil";"O Projeto Gerando Vidas é uma instituição que existe há quase varios anos e se propõe a trabalhar com vários grupos sociais visando melhorar a qualidade de vida dessas pessoas. É dirigido pelo pastor e professor João Batista Freire, que atualmente desenvolve o trabalho em Maria Paula, bairro que divide Niterói e São Gonçalo.Pode ser definido como uma instituição para escolar, embora lide com pessoas de todas as idades.Visando a inclusão social são desenvolvidas diversas atividades como : jiu jitsu, judô, apoio escolar, musica instrumental e canto, teatro Kick boxing, entre outras.";;;;;;;;;;"João Batista Freire da Silva";;"projeto.gerando.vida@hotmail.com";"https://www.facebook.com/gerandovidasmariapaula/";;;;0;;"CBJJ";;"BR";7094
"BCR (Bravos no Caminho do Rei)";;;"Rua Miracema n: 16 Lote 16 Qd 112, Trindade";"São Gonçalo";"RJ";"24457-250";;"Brasil";;;;;;;;;;;"Leonardo de Macena Braga";;;;;;;0;;"CBJJ";;"BR";6774
"Dojo Arzu Fight Team";"https://www.dojoaft.com.br/";" + 55 21 98605-7704";"Rua Maria Fonseca, 60 - Camarão";"São Gonçalo";"RJ";"24435-050";;"Brasil";"O Dojo Arzu Fight Team foi iniciado em 1992 com a fundação da Equipe Arzu de Jiu-Jitsu porém, foi em 20 de setembro de 2010 quando os professores e os instrutores da Arzu Team desejaram montar um dojo de lutas em um local independente da sede da Escola Arzu de Jiu-Jitsu assim, o sensei Antônio Carlos – “Arzu” junto com instrutor Adésio e o aluno Leonardo Blackman encontraram um imóvel no bairro Gradim em São Gonçalo no Rio de Janeiro (local este que foi o primeiro espaço do Dojo AFT - Dojo Arzu Fight Team.";"https://static.wixstatic.com/media/740cd9_d642dc26fcda474a80beae685df9d48b~mv2.png/v1/fill/w_99,h_96,al_c,q_85,usm_0.66_1.00_0.01/Adesivo_-_do_Instituto_AFT_Reconstru%C3%A7%C3%A3o_.webp";;;;;"Muay Thai";;;;"Antônio Carlos - Arzu";;"dojoaft@gmail.com";;"https://www.youtube.com/user/ArzuTeam";;;0;;"CBJJ, FJJ/RIO, FERJJI, CBJJI";;"BR";6880
"Familia Barta Jiu-Jitsu";;" + 55 21 7704-2088";"Rua Comandante Ari Parreiras n: 206, Bairro: Porto Velho";"São Gonçalo";"RJ";"24426-553";;"Brasil";;;;;;;;;;;"Fabricio Rodrigues da Silva";;;"https://www.facebook.com/FamiliaBartaJiuJitsu/";;;;0;;"CBJJ";;"BR";6761
"HN Team";"https://hn-team.negocio.site/";" + 55 21 96454-7942";"Rua Doutor Alfredo Backer, 536 bl 6 1208 - Alcantara";"São Gonçalo";"RJ";"24452-005";;"Brasil";"Equipe de Jiu-Jitsu filiada a Confederação Brasileira de Jiu-Jitsu Federação do Rio";;;;;;;;;"Mon, Wed: 7:45pm-9:30pm";"Hely Nogueira de Oliveira Filho";;;;;;;0;;"CBJJ";;"BR";5967
"Kairos Jiu-Jitsu";;;"Rod. Prefeito João Sampaio n: 280 B, Rio D'Ouro";"São Gonçalo";"RJ";;;"Brasil";;;;;;;;;;;"Fabricio Rodrigues da Silva";;;;;;;0;;"CBJJ";;"BR";6760
"Tremmor Top Team BJJ";;;"Av. 18 do Forte n: 1800, Sobrado";"São Gonçalo";"RJ";"24460-005";;"Brasil";"Equipe de Jiu-Jitsu Brasileiro de São Gonçalo(RJ). Fundada pelo professor Amaral em 24 de Outubro de 2016.";;;;;;;;;;"Ronaldo Viegas da Silva";;;"https://www.facebook.com/tremmortopteambjj/";;;;0;;"CBJJ";;"BR";6959
"Team Bruno Costa Jiu-Jitsu";;;"Rua João Francisco de Almeida n: 321, Bairro: Centro";"São João da Barra";"RJ";;;"Brasil";;;;;;;;;;;"Bruno Ernesto da Costa";;;;;;;0;;"CBJJ";;"BR";6982
"Equipe Power Fight";;" + 55 21 96460-8327";"Rua Bernardino Tillia n: 113 , Bairro: Coelho da Rocha";"São João de Meriti";"RJ";"25550-260";;"Brasil";"O C.T. POWER FIGHT é referência de ensino das artes marciais, localizado na Rua Bernardino Tillia- n°113-Coelho da Rocha- SJM, próx a Praça da Bandeira. Academia especializada em Judô e Jiu-Jitsu. Contamos com professores Altamente Qualificados para trabalhar com Crianças Homens e Mulheres. Iremos participar de competições internas,carioca,estadual entre outras, das duas modalidades. Venha conferir nossa academia Inscrições abertas.";;;;;;;;;;"Ricardo da Silva Agnez";;;"https://www.facebook.com/CentrodeTreinamentoPowerFight/";;;;0;;"CBJJ";;"BR";6534
"Vencer Centro Esportivo Resgate";;" + 55 21 2786-4630";"Rua Ex Combatente n: 36, Bairro: Coelho da Rocha";"São João de Meriti";"RJ";"25550-761";;"Brasil";"Um Centro Esportivo Social totalmente gratuito com para crianças e adolescentes de 05 a 18 anos, com 6 modalidades de luta, são elas: Muay Thai, Kickboxing, Judô, Jiu Jits e Luta Livre. Nossa Missão: Promover a integração, através da prática esportiva, implementando valores de cidadania e solidariedade, desenvolvendo potenciais e resgatando projetos de vida de jovens e crianças. Nossa Visão: Ampliar as oportunidades sociais de crianças e jovens, preparando-os para o exercício pleno da cidadania, transformando-os em cidadãos capacitados para a vida.";;;;;;"Wrestling, Judo, Muay Thai, Gymnastics, Fit Dance";;;;"André Barroso Pires";;;"https://www.facebook.com/Centro.Esportivo.Resgate/";;;;0;;"CBJJ";;"BR";7218
"Andre Martini Brazilian Jiu-Jitsu";;" + 55 22 99858-2304";"Rua da Luz, 452";"Cabo Frio";"RJ";"28908-120";;"Brasil";;;;;;;;;;;"Andre Luiz Martini de Castro Ferreira";;;"https://www.facebook.com/AndreMartiniBrazilianJiuJitsu/";"https://www.youtube.com/channel/UC9YQ_y1ihPlfBJ9d-x-k_bw";"https://youtu.be/1vWcpv_p378";;0;;"CBJJ";;"BR";7003
"CGT Jiu-Jitsu";;" + 55 21 97281-7711";"Rua Francisco Sá, 39 - Sobreloja - Várzea ";"Teresópolis";"RJ";"25953-011";;"Brasil";;;;;;;"Self Defense, Muay Thai, Zumba, Air Boxing, Judo";;;;"Claudio Silva Muniz";;;"https://www.facebook.com/carlsongracieteam/";;;;0;;"CBJJ";;"BR";6030
"Escola de Jiu-Jitsu WS";"https://escola-de-jiu-jitsu-ws.negocio.site/";" + 55 21 96772-4670";"Rua Doutor Aleixo, 85 - Várzea";"Teresópolis";"RJ";"25953-070";;"Brasil";"Um espaço voltado para a prática de artes marciais , com o jiu jitsu como ponto forte , ambiente familiar voltado não só para competidores mas também para aqueles que buscam bem estar fisco e mental. Através da disciplina e métodos de ensino , visamos a melhoria de vida de cada aluno , seja ele jovem ou aquele chefe de família que nos procura, em busca uma qualidade de vida melhor! Ao assistir à uma luta em campeonato oficial de Jiu-Jitsu, podemos pensar que esse é um esporte para poucos. Mas, basta entrarmos em uma academia para assistir a um treino que esse pensamento logo cai por terra.É muito comum vermos crianças, mulheres e homens dos mais variados tamanhos treinando Jiu-Jitsu em uma academia. Mais comum ainda é vermos um homem franzino finalizando outro homem maior e mais pesado. Esse é o espírito do Jiu! Propiciar a qualquer um a possibilidade de alcançar a vitória. Para as mulheres, o Jiu-Jitsu, além do objetivo esportivo, de gerar campeãs, também propicia o importante ensino da defesa pessoal. Em um país como o Brasil, onde um estupro ocorre a cada 11 minutos, é fundamental que a mulher tenha noções básicas de como se defender, e, principalmente, de como sair de uma situação de desvantagem.Com o Jiu-Jitsu, as mulheres aprendem técnicas tanto para sair de uma posição de chão, mesmo tendo uma pessoa mais pesada em cima dela, quanto golpes para aplicar enquanto estão em pé, caso sofram ataques nesta posição.Já para as crianças, o Jiu-Jitsu é uma forma de aprendizado, que ajuda a moldar o caráter dos pequenos. Em uma aula de Jiu-Jitsu, as crianças aprendem sobre a hierarquia, o respeito às regras e aos companheiros, desenvolvem a concentração, aprendem a controlar a ansiedade, e, além de tudo isso, praticam uma atividade física que movimenta o corpo todo.Portanto, não há contraindicações para a prática do Jiu-Jitsu. Cada um com seu objetivo, mas todos em busca de crescimento e evolução pessoal.";;;;;;;;;;"Washington Faria da Silva";;;"https://www.facebook.com/escoladejiujitsuWS/";"https://www.youtube.com/channel/UCKd1ZxUyvycgK_Oh04Wknhg";;;0;;"CBJJ";;"BR";6801
"Globe Fight Brazilian Jiu-Jitsu";;" + 55 21 99334-1020";"Av. Presidente Roosevelt 1665 Bl 7 apt 201, Barra Do Imbui";"Teresópolis";"RJ";"25966-001";;"Brasil";;;;;;;;;;;"João Marcos Caciano de Souza";;"jm_caciano@hotmail.com";"https://www.facebook.com/Globe-Fight-Brazilian-J%C3%ADu-Jitsu-494352277289586/";;;;0;;"CBJJ";;"BR";5953
"Linhagem Real";;;"Rua Palmira Maria de Oliveira n: 246, Rua do Cedal - São Pedro";"Teresópolis";"RJ";;;"Brasil";;;;;;;;;;;"Vinicius Paula Bastos";;;;;;;0;;"CBJJ";;"BR";6835
"Takayas Top Team";;" + 55 21 96823-9365";"Rua Doutor Jorge Melick n: 05, Corta Vento";"Teresópolis";"RJ";"25963-360";;"Brasil";"The only way to beat Jiu Jitsu is to learn Jiu Jitsu";;;;;;;;;;"Roger Takayas dos Santos";;"rogertakayas@bol.com.br";"https://www.facebook.com/Takayas-Family-Bjj-1392767384378221/";;;;0;;"CBJJ";;"BR";6337
"Team Pé de Chumbo";;" + 55 21 99121-9327";"Av. Lúcio Meira, 1143 - Várzea";"Teresópolis";"RJ";"25953-003";;"Brasil";"Organizados como um time, unidos como uma família.";;;;;;;;;;"Delson Heleno Raimundo";;"teampedechumbo@bol.com.br";"https://www.facebook.com/teampedechumbo/";;;;0;;"CBJJ";;"BR";6522
"Soul Fighters Bora Bora";;" + 55 21 99962-5549";"Rua José Higino, 130 - Tijuca";"Rio de Janeiro";"RJ";"20520-202";;"Brasil";"Escola de Jiu-jitsu que tem suas turmas divididas por faixa etária e com professores com mais de 20 anos de experiência lecionando para todas as idades.";;;;;;;;;;"Alvaro Mansor Guarçoni";;;"https://www.facebook.com/soulfighterbarra/";;;;0;;"CBJJ";;"BR";7341
"Gracie Barra Vargem Grande";;" + 55 21 99847-1325";"Est. dos Bandeirantes, 24006, sala 201 - Vargem Grande";"Rio de Janeiro";"RJ";"22785-092";;"Brasil";"Escola oficial Gracie Barra de Jiu-Jitsu e Defesa Pessoal em Vargem Grande - RJ. Turmas: Adultos, Mulheres e Crianças! Venha fazer uma aula experimental! Gracie Barra Vargem Grande, Rio de Janeiro. Escola de Jiu-Jitsu e defesa pessoal";;;;;;;;;;"Seidler Rodrigo Santos Ziser";;"gbvargemgranderj@gmail.com";"https://www.facebook.com/gbvargemrj/";"https://www.youtube.com/channel/UCTwQhmQcVKZE_rQAo7-3VRw";"https://youtu.be/Uv51PP02xRg";;0;;"CBJJ";;"BR";6072
"Infantaria de Jiu-Jitsu Brasileiro";;;"Rua José Leal n: 230, Centro";"Paraú";"RN";;;"Brasil";;;;;;;;;;;"Elenilson Nunes da Silva";;;;;;;0;;"CBJJ";;"BR";7507
"FA Team";;" + 55 51 98945-3222";"Rua Salgado Filho 517";"Alvorada";"RS";"94820-450";;"Brasil";;;;;;;;;;;"Felipe Luz Alves";;"felipealvesbma@gmail.com";"https://www.facebook.com/FA.TEAM.BJJ.SCHOOL/";;;;0;;"CBJJ, IBJJF";;"BR";5811
"Advance";;;"Os Dezoito do Forte, 31";"Caxias do Sul";"RS";"95020-471";;"Brasil";;;;;;;;;;;"Gabriel Grasselli de Lima";;;;;;;0;;"CBJJ";;"BR";7745
"AKBJJ";;;"Rua Tiradentes, 403";"Pantano Grande";"RS";"96690-000";;"Brasil";;;;;;;;;;;"Alexandre Krauze Cabeçudo";;;;;;;0;;"CBJJ";;"BR";7749
"Jaca Team Jiu-Jitsu";;" + 55 51 3208-1165";"Av. Bento Gonçalves, 3723 - Partenon";"Porto Alegre";"RS";"90650-003";;"Brasil";;;;;;;;;;;"Alexandre Moura da Rosa";;;;;;;0;;"CBJJ";;"BR";7327
"Mario Sperry Jiu Jitsu Porto Alegre - Sul/Brasil";"http://mariosperry.com/";" + 55 51 98131-9934";"Av. Coronel Marcos, 2353 - Ipanema";"Porto Alegre";"RS";"91760-000";;"Brasil";"A Academia SJJ é pioneira no ensino do jiu jitsu no RS . O tamanho de nossa equipe e de nossas vitórias, não deixam dúvidas sobre a nossa qualidade. Os Mestres Walter Mattos e José Mario Sperry, inauguraram no dia 15 de março de 1994, a Academia Sul Jiu Jitsu. O Mestre Walter Mattos foi o pioneiro do Jiu Jitsu no Estado, retornando a sua cidade natal no ano de 1992, trazendo com ele a sua Faixa Preta, dada, por dois dos melhores lutadores de jiu jitsu do mundo. Mestre Carlson Gracie e Mestre Sergio Penha. Da Matriz surgiram varios campeões Gaúchos ,Sul Brasileiro,sul americanos,pan americanos e Mundias .Os professores formados pela SJJ que se encontran no RS e no Mundo nos dias de hoje foram formados em sua maioria na matriz. Muitos continuan com nossa bandeira e outros que resolveran trilhar seus caminhos.Mas todos fazem parte da historia.";"http://mariosperry.com/wp-content/uploads/2016/07/logo.png";;;;;;;;;"Gustavo Silvestro";;"contato.msjj@gmail.com";"https://www.facebook.com/mariosperrybrasil/";;;;0;;"CBJJ";;"BR";7171
"Thork Jiu-Jitsu";;" + 55 55 3026-8660";"Rua Visconde de Pelotas 2122";"Santa Maria";"RS";"97015-140";;"Brasil";"Academia de Jiu-Jitsu, ministrada pelo mestre faixa preta Leonardo Morosetti. A evolução não para! Oss.";;;;;;;;;;"Leonardo Morosetti de Lima";;"leomorosetti@yahoo.com.br";"https://www.facebook.com/THORKJiuJitsu/";;;;0;;"CBJJ";;"BR";7602
"Denis Morais Team/DMT";;;"Rua Dez s/n, Clube Náutico - Praia Prava";"Angra dos Reis";"RJ";;;"Brasil";;;;;;;;;;;"Denis Morais dos Santos";;;;;;;0;;"CBJJ";;"BR";5252
"Gracie Barra Armação dos Búzios";;"  + 55 22 99974-5715";"Av. Estrada Canto Esquerda do Geribá n: 100 loja 1, Manguinhos";"Armação dos Buzios";"RJ";"28950-000";;"Brasil";;;;;;;;;;;"Reinaldo Ende Lopes da Silva";;;"https://www.facebook.com/graciebarraarmacaodosbuzios/";;;;0;;"CBJJ";;"BR";5090
"Luciano Gazen Team";;" + 55 21 99936-9649";"Rua Padre Antônio C. Carvalho S/N, Loja - Ribeira/Papucaia";"Cachoeira de Macacu";"RJ";"28680-000";;"Brasil";"Somos muito mais que uma equipe, somos uma família! Formando campeões dentro e fora dos tatames.";;;;;;;;;;"Luciano Gazen da Cunha";;;"https://www.facebook.com/Centro-de-Treinamento-Luciano-Gazen-Team-470491109685315/";"https://www.youtube.com/user/lucianogazenteam";"https://youtu.be/Tq49mnfjZVI";;0;;"CBJJ";;"BR";4371
"Fight House BJJ";;" + 55 22 99202-7671";"Rua Pastor Luiz Laurentino 1351 - Santa Ely";"Casimiro de Abreu";"RJ";"28860-000";;"Brasil";;;;;;;;;;;"Rafael Bouckhorny Gonçalves";;"rrafaelbg@gmail.com";"https://www.facebook.com/Fight-House-BJJ-593904337753638/";;;;0;;"CBJJ";;"BR";5938
"Joalon";"https://grupojoalon.blogspot.com/";" + 55 21 99416-5941";"R. Sergipe, 144 - Santa Cruz da Serra";"Duque de Caxias";"RJ";;;"Brasil";;"https://2.bp.blogspot.com/-FBjE9cgv9WA/Xs6-rphjxNI/AAAAAAABXQM/ZIctgxx3mhwAfonG-SCtubJIkH8XwHilwCK4BGAYYCw/s350/14199347_1157005507693237_6810056707888016023_n.png";;;;;;;;;"Joacil Vieira De Carvalho";;"joalon2010@hotmail.com";"https://www.facebook.com/AcademiaJoalon/";;"https://youtu.be/kFZL45_nf6Q?list=PLfjeuS5geQyX--c7braLTfpv2yGeBl_X0";;0;;"CBJJ";;"BR";1028
"PRM Team";"https://www.primeteambjj.com.br/";" + 55 21 99580-9046";"Rua Professor José de Souza Herdy, 1235 - Jardim 25 de Agosto";"Duque de Caxias";"RJ";"25071-201";;"Brasil";"Apesar do nome da modalidade ser ""jiu-jitsu"", na verdade, a modalidade não se aplica como o tradicional Ju-jutsu, foi desenvolvida como especialização e ênfase das técnicas de controle e luta no chão, ne waza e katame waza, e com menos ênfase às técnicas de luta executadas de pé, tate waza, das técnicas de judô, de Mitsuyo Maeda, representante direto do Instituto Kodokan. Por não serem o foco principal da modalidade, os golpes de ate waza e kansetsu waza, acabam tendo papel coadjuvante e/ou intermédio para a execução de um golpe final de submissão do adversário. O nome do estilo de luta da família Gracie permaneceu como jujutsu, porque na época em que os irmãos Carlos e Hélio Gracie, principalmente, finalizaram seu repertório, o nome ""judô"" ainda não era de uso comum mas Kodokan jujutsu. O criador do estilo foi, em princípio, Carlos Gracie, que adaptou o Judô com especial apreço à luta de solo, haja vista que seu porte físico punha-lhe em severa desvantagem contra adversários de maior porte. Partindo do princípio de que numa luta de solo, quando projeções ou mesmo chutes e socos não são eficientes, mas alavancas, sim, o porte físico dos contendores torna-se de menor importância. Nessa situação, aquele que tiver mais técnica possuirá consequentemente a vantagem. Se não foram originais em adaptar uma arte marcial provecta, haja vista que no Japão isso já há muito ocorrera com o aiquidô e o próprio judô, oriundos do Jiu-jitsu, com o caratê, oriundo do te-jutsu de Okinawa, ou mesmo no resto do mundo como o krav maga (Israel) ou a capoeira regional (Brasil), Carlos Gracie e depois Hélio Gracie foram originais em criar um paradigma que prima pela efetividade. Comprovado o seu sucesso em competições, o Jiu-jitsu brasileiro serviu de cerne do que viria a ser a modalidade artes marciais mistas. ";"https://www.primeteambjj.com.br/images/about/about-img1.jpg";;;;;;;;;"Juan Lopes da Silva";;"escolabunker@gmail.com";"https://www.facebook.com/primeteambjj/";;;;0;;"CBJJ";;"BR";4406
"Pitbull Parada Modelo";;;"Estrada Rio Friburgo - KM 0 53, Parada Modelo";"Guapimirim";"RJ";;;"Brasil";;;;;;;;;;;"Rodrigo Alcantara Siqueira";;;;;;;0;;"CBJJ";;"BR";4683
"Bremgartner Team";;;"Praia da Rosa n: 1257, Tauá";"Rio de Janeiro";"RJ";"21920-110";;"Brasil";;;;;;;;;;;"Alberto Bremgartner Neto";;;;;;;0;;"CBJJ";;"BR";2227
"Itaborai Top Team";;" + 55 21 98564-9029";"Rua Vitorino Ferreira de Araujo Nº 02 Bairro Apolo II";"Itaboraí";"RJ";;;"Brasil";;;;;;;;;;;"Andre Luiz Marins de Souza";;;"https://www.facebook.com/D2bjj/";;;;0;;"CBJJ";;"BR";5308
"Clube Paes JJ";;" + 55 21 97336-6216";"Rua A Lote 24 Quadra 01 - Número 3.033, New Park - Manilha Bairro: Vila Brasil";"Itaboraí";"RJ";"24859-068";;"Brasil";;;;;;;;;;;"Cirval Justino da Silva";;;"https://www.facebook.com/Paes-jiu-jitsu-Itabora%C3%AD-622175527891431/";;;;0;;"CBJJ";;"BR";263
"Carioca Brazilian Jiu-Jitsu";"https://business.google.com/website/cariocabrazilianjiujitsu";" + 55 21 99871-3925";"Rua Antônio Maurício, 9, 1° Andar - Centro";"Itaguaí";"RJ";"23810-410";;"Brasil";;;;;;;;;;"Mon-Fri: 6:00am-10:00pm";"Mauro Tani";;;;;;;0;;"CBJJ";;"BR";190
"Soul Fighters Itaperuna";;;"Rua Primeiro de Maio, 1310 - Niterói";"Itaperuna";"RJ";"28300-000";;"Brasil";;;;;;;;;;;"Alvaro Mansor Guarçoni";;;"https://www.facebook.com/Soul-Fighters-Itaperuna-2138930239700011/";;;;0;;"CBJJ";;"BR";4662
"Cesar Maillet Team";;" + 55 22 99719-0781";"Rua Tiradentes n: 194, Centro";"Macaé";"RJ";"27915-060";;"Brasil";"Equipe de JIU JITSU liderada por Cesar e Marvel Maillet. Nosso objetivo é socializar, disciplinar e fortalecer os bons valores através da arte marcial.";;;;;;;;;;"Paulo Cesar Paolino Maillet";;;"https://www.facebook.com/cesarmailletjiujitsuteam/";"https://www.youtube.com/channel/UCsJH6OdiIOtOF3nw2Qq62CQ";;;0;;"CBJJ";;"BR";4417
"Academia Ass. Mageense de Jiu-Jitsu";;;"Rua Irineu Marinho n: 8, Tenis Clube";"Magé";"RJ";;;"Brasil";;;;;;;;;;;"Mozar Tadeu Taldo Rodrigues";;;;;;;0;;"CBJJ";;"BR";2428
"Equipe PH Jiu-Jitsu";;" + 55 21 2792-4372";"Rua Bernardino Borges dos Reis 200, Cosmorama";"Mesquita";"RJ";"26582-150";;"Brasil";"A Equipe PH originou-se da Associação Esportiva do Parque Anchieta (AEPA), onde o Mestre Hildebrando Gonçalo deu aulas de Jiu jitsu até sua morte (1991), formando lá inúmeros faixas pretas, entre eles estava o seu filho o Prof. Alexandre Silva, que querendo prestar uma justa homenagem fundou então a Equipe Prof. Hildebrando, que por ser um nome diferenciado e extenso resolveu abreviar, assim dando início a Equipe PH Jiu-jitsu, uma Família de Campeões.";;;;;;;;;;"Alexandre Gonçalves da Silva";;"phjiujitsu@hotmail.com";"https://www.facebook.com/PHJiuJitsuOficial/";"https://www.youtube.com/channel/UCvoYGl6Yl-1UDKsSm0Amoxw";"https://youtu.be/HKMKECnR0F0";;0;;"CBJJ";;"BR";340
"Art Prodigy Jiu-jitsu";"https://www.artprodigyjiujitsu.com.br/";" + 55 21 98664-0051";"Av Getúlio Vargas, 1601 - 2° andar - Centro";"Nilópolis";"RJ";"26510-014";;"Brasil";"ART PRODIGY JIU-JITSU surgiu do sonho do Sensei André Santos, faixa preta 2º grau. Pude ter o primeiro contato com Jiu Jitsu, através de um projeto social em 2000, onde quem ministrava as aulas era o Mestre Isaac Araújo. Logo após comecei a trilhar minha trajetória tendo como Professor Luis Claudio Corino que era aluno do Muzzio de Angelis e que agora se encontra com o Mestre Júlio Cesar Pereira. Hoje eu realizei um sonho que esteve no papel desde que iniciei a carreira de Professor de jiujitsu que era ter uma academia onde daria qualidade de vida para os alunos que ali estivessem. Durante todo esse tempo procurei um lugar que desse suporte para esse projeto. Logo fundei a ART PRODIGY JIU-JITSU onde continuamos filiados à equipe GFteam e dando seguimento aos treinos com qualidade.";"https://www.artprodigyjiujitsu.com.br/img/logo.png";"https://www.artprodigyjiujitsu.com.br/treinamento.php";"Traga as crianças a sua volta para o jiu jitsu. Jiu Jitsu Infantil começa a partir dos 5 anos, e as turmas são divididas entre as turmas kids, Infantil e juvenil. Isso nos permite ensinar nossas crianças dentro de ambiente mais seguro e de melhor compreensão em cada fase de seu desenvolvimento. Com os menores, a aula é feita de forma lúdica e divertida, conforme eles vão tendo uma melhor entendimento os fatores como disciplina e coordenação começam a ter um maior peso, até chegarmos no foco da parte técnica que acontece conforme os alunos evoluem dentro de nosso programa de ensino. Aqui eles aprendem não só a ter limites como começam a entender o significado da disputa, do perder e ganhar, o incentivo a se extrair o melhor de cada um traz a ele uma auto estima e auto confiança essenciais para que se desenvolvam como crianças seguras e disciplinadas.";;;;"Plano Recorrente Mensal: R$ 95 Adulto, R$ 90 Infantil; Plano Recorrente Semestral: R$ 540 Adulto, R$ 510 Infantil; Plano Recorrente Anual: R$ 1080 Adulto, R$ 1020 Infantil";;;"Andre Luiz Daniel Santos";;"gfteam@artprodigyjiujitsu.com.br ";"https://www.facebook.com/APJgfteam/";;;;0;;"CBJJ";;"BR";7587
"Curucuruland BJJ";"http://curucuruland.com/";;"Rua Bertha Motta Vieira 1126, Quadra 18";"Niterói";"RJ";;;"Brasil";"Black Belt 4th degree , Sensei Rodrigo Pagani has been teaching bjj since 1999. Former competitor, fought the Worlds in Brasil 2002, 2003 in the adult division. He is 3X International of Maters Champion, 4X Brasilian National Champion , European Champion, and 3X Rio de Janeiro State Champion. The creator of the Curu-Curu Guard and the CURUCURULAND BJJ, where you find the Brazilian Jiu-Jitsu lifestyle in the purest state. CURUCURULAND TV brings you close to Sensei Rodrigo Pagani , his System and all of his 3 decades dedicated to gentle art. A lifetime of work all organized in sets of videos ready for you to learn from one of the best. The Curucuru master and also his guests ready for your demand. CURUCURULAND CAMP will be happy to receive you and your family for an immersion in the Bjj lifestyle in Brasil. Staying in our camp we will feed you with great food made from our special Cheff, train Jiu-Jitsu and yoga all in the same deal. Once here you will interact with the local CURUCURULAND students.";;;;;;;;;;"Rodrigo Borges Pagani";;"curucuruland@hotmail.com";"https://www.facebook.com/curucurulandbjj/";;;;0;;"CBJJ";;"BR";7599
"Audácia Brazilian Jiu-Jitsu";;;"Estrada Caetano Monteiro, 2719, Pendotiba";"Niterói";"RJ";"24320-570";;"Brasil";;;;;;;;;;;"William Sales Candido da Silva";;;;;;;0;;"CBJJ";;"BR";5656
"Fabricio Rodrigues BJJ";;" + 55 21 98146-6196";"R. Cel. Guimarães, 269 - Engenhoca";"Niterói";"RJ";"24110-441";;"Brasil";"Academia e de Jiu-Jitsu, localizada no município de Niterói, no Colégio Niterói, no bairro da Engenhoca. Uma equipe de professores preparada para treinar homens e mulheres, sejam adultos, jovens ou crianças em um ambiente de respeito e amizade.";;;;;;;;;;"Fabricio Rodrigues da Silva";;"fabriciorodriguesbjj@gmail.com";"https://www.facebook.com/Academia-Fabr%C3%ADcio-Rodrigues-BJJ-102913111500738/";"https://www.youtube.com/channel/UCWJHy3t2Pftp3AitRBfA33g";"https://youtu.be/UdorOb7dBnI";;0;;"CBJJ";;"BR";3120
"Gracie Barra Santa Rosa";"https://santarosa.gbniteroi.com.br/";" + 55 21 97280-7883";"R. Noronha Torrezão, 145 - Santa Rosa";"Niterói";"RJ";"24240-183";;"Brasil";"Nós da Gracie Barra Santa Rosa, Escola Oficial de Jiu-jitsu Gracie Barra, oferecemos para a cidade de de Niterói, juntamente com a Gracie Barra Icaraí, um ambiente amigável e de cooperação entre os alunos para seu desenvolvimento pessoal, melhoria do condicionamento físico e de mais qualidade de vida, além do fortalecimento do espírito de família. Tudo através da prática do Jiu-jitsu e de técnicas de defesa pessoal.";;;;;;;;;;"Seidler Rodrigo Santos Ziser";;"santarosa@gbniteroi.com.br";"https://www.facebook.com/gbstarosa/";;;;0;;"CBJJ";;"BR";5676
"Benevides Jiu-Jitsu";"https://www.benevidesjiujitsu.com/";" + 55 22 99728-4503";"Rua Pastor Meyer 31";"Nova Friburgo";"RJ";"28625-116";;"Brasil";;"https://static.wixstatic.com/media/20ef22_2ca256ad7bbe4d2ebf2eca720936e759~mv2.png/v1/fill/w_843,h_350,al_c,q_85/20ef22_2ca256ad7bbe4d2ebf2eca720936e759~mv2.webp";;;;;;;"https://www.benevidesjiujitsu.com/?pgid=k4bns4dh-9a8e064d-ea6e-4900-b35c-ec1812ca416d";;"Rafael Benevides Carvalho";;"benevides83@yahoo.com.br";"https://www.facebook.com/equipebenevidesjiujitsu/";;;;0;;"CBJJ";;"BR";5546
"BJJ Coach Brasil";"https://bjjcoach.com/";" + 55 22 98094-6445";"Av. Conselheiro Julius ARP 361, Olaria";"Nova Friburgo";"RJ";"28600-000";;"Brasil";"At the age of 6 years old Marcello started learning Brazilian Jiu Jitsu with Alvaro Barreto (Carlos and Helio Gracie's student) at the Corpo Quatro Academy in Copacabana Rio De Janeiro/ Brazil. But at that age, Marcello was just a small kid that used to train on and off and he didn't know how BJJ would change his life. At the age of 16, Marcello started to take BJJ very serious in his life. Many years ago, some of Carlson Gracie's best students in Brazil were Sergio Souza ""Bolao"", Ricardo De La Riva and Ricardo Juca. These were among many BJJ Masters that he had the opportunity to train with and helped his game. Marcello likes to speak about these 3 old masters. Sergio Souza helped Marcello's game for about 1 year. Sergio Souza is best known in Brazil for his ""butterfly"" guard. De La Riva is best known for his ""De La Riva Hook"" and Ricardo Juca is best known in Brazil for his fighting strategies for back attacks and mount attacks. Juca also published in the very first BJJ book in Brazil. For many years Marcello was considered De La Riva's protege at his Brazilian Jiu Jitsu academy in Rio De Janeiro/Brazil. De La Riva showed Marcello all the secret details of his De La Riva Guard game. Juca showed Marcello all his fighting strategies while focusing on teaching Marcello the way he should think during a match. Marcello helped De La Riva give BJJ lessons at his school for many years, until achieving his Black Belt in December of 1999. In 1998 Marcello opened his first school in Nova Friburgo in Rio De Janeiro/Brazil where he has turned regular students into State, National and World Champions. Marcello always says, “He was in the right place at the right time. He learned BJJ from the right sources, before it was regarded worldwide as a premier fighting art. Since 2003 Marcello has resided in Indianapolis/IN in the U.S. where he is continuing to fulfill his dream of spreading his knowledge of Brazilian Jiu-Jitsu. He hopes to continue fulfilling his dream until the day he dies. And he hopes that even after he's gone, his knowledge will continue to spread.";"https://bjjcoach.com/templates/bjjcoach/images/logo.png";;;;;;;;;"Marcello Chapuis Monteiro";;"info@bjjcoach.com";;;;;0;;"CBJJ";;"BR";4270
"Junior Santos Jungle";;;"Estrada Vereador Eugênio Guilherme Spitz 2600 Casa de Esquina, Bairro: Mury";"Nova Friburgo";"RJ";"28615-450";;"Brasil";;;;;;;;;;;"Simonides Manoel dos Santos Júnior";;;;;;;0;;"CBJJ";;"BR";3745
"Equipe GTT/IST";;;"Rua Joá Lt 2 Qd. 37 S/N, Cabuçu";"Nova Iguaçu";"RJ";;;"Brasil";;;;;;;;;;;"Gustavo de Raymundo Souza";;;;;;;0;;"CBJJ";;"BR";3810
"Familia Absoluto BJJ";;;"Doutor Arruda Negreiros n: 1039, Sobreloja Bairro: Austin";"Nova Iguaçu";"RJ";"26089-310";;"Brasil";;;;;;;;;;;"Alan da Silva Lessa";;;;;;;0;;"CBJJ";;"BR";6399
"Flavio Leal Team";"https://escola-de-jiu-jitsu-flavio-leal.negocio.site/";" + 55 21 98705-7053";"Rua Fagundes Varela, 227 - Cerâmica";"Nova Iguaçu";"RJ";"26031-300";;"Brasil";"Uma escola de jiu-jitsu com professores especializados em luta, registrados na confederação brasileira de jiu-jitsu. Temos o intuito de melhorar a vida é a saúde dos nossos alunos por meio do esporte.";;;;;;;;;"Mon: 3:00pm-11:00pm; Tues, Thurs: 6:00am-11:00am, 6:30pm-9:20pm; Wed: 3:00pm-4:00pm, 5:30pm-11:00pm; Fri: 6:00am-11:00am, 3:00pm-4:00pm, 5:30pm-11:00pm";"Luiz Flavio Leal";;;;;;;0;;"CBJJ";;"BR";5306
"Galamba Jiu-Jitsu";;;"Rua Humaita 320, Cabuçu";"Nova Iguaçu";"RJ";"26064-430";;"Brasil";"Equipe Galamba Jiu-Jitsu. Fundada em 12 de Julho de 2009 pelo Professor Alessandro Buda Galamba faixa preta 3º grau de jiu-jitsu FJJ-RIO/CBJJ e CBJJ.";;;;;;;;;;"Alessandro dos Santos Galamba";;;"https://www.facebook.com/GalambaJiuJitsu/";;;;0;;"CBJJ, FJJ-RIO";;"BR";4781
"Greffe Jiu-Jitsu";;;"Rua José Vieira Ramos 86, Centro - Magnus Pousada";"Paraty";"RJ";"23970-000";;"Brasil";;;;;;;;;;;"Pedro Paulo Greffe da Silva";;;"https://www.facebook.com/greffejiujitsu/";;;;0;;"CBJJ";;"BR";5140
"Academia Serrana Petrópolis de Jiu-Jitsu";;;"Rua do Imperador 288 Sobreloja 11, Centro";"Petrópolis";"RJ";"25620-000";;"Brasil";;;;;;;;;;;"Irineu Ravelli Junior";;;;;;;0;;"CBJJ";;"BR";2663
"Balta Rodrigues";;;"R. Estr. da Fazenda Inglesa - Mosela, 2081 - Fazenda Inglesa";"Petrópolis";"RJ";"25670-075";;"Brasil";;;;;;;;;;;"Francisco Baltazar Rodrigues";;;;;;;0;;"CBJJ";;"BR";5628
"Pedro De Miranda Jiu-Jitsu";;;"Estrada Bernardo Coutinho, 2651, Araras";"Petrópolis";"RJ";"25725-032";;"Brasil";;;;;;;;;;;"Pedro Simões Lopes de Miranda";;;"https://www.facebook.com/pedrodemirandabjj/";;;;0;;"CBJJ";;"BR";5649
"QG Centro de Lutas";;" + 55 24 98131-6227";"Estrada União Industria 19.183 (loja), Pedra do Rio";"Petrópolis";"RJ";"25750-225";;"Brasil";"QG Centro de Lutas é uma academia de Jiu-Jitsu, Submission, Boxe e MMA da região serrana do Rio de Janeiro, localizada em Pedro do Rio - Petrópolis - RJ. O proprietário e fundador é o professor e lutador Daniel ""Jagunço"" Clavery.";;;;;;;;;;"Daniel ""Jagunço"" Clavery";;"qgcentrodelutas@gmail.com";"https://www.facebook.com/qgcentrodelutas/";;;;0;;"CBJJ";;"BR";5502
"Fernandão ADNJJ Team";;;"Rua Teresopolis n: 1081, casa 01";"Rio das Ostras";"RJ";"28890-000";;"Brasil";;;;;;;;;;;"Luiz Fernando Santos Barbosa";;;;;;;0;;"CBJJ";;"BR";5131
"3 R Jiu-Jitsu";;" + 55 21 97918-2203";"Rua Antônio Chagas, 22, Bairro Califórnia - Campo Grande ";"Rio de Janeiro";"RJ";"23071-260";;"Brasil";;;;;;;;;;;"Flavio Teixeira Garcia";;;"https://www.facebook.com/3rjiujitsubjj/";;;;0;;"CBJJ";;"BR";5448
"3 V Jiu-Jitsu";;;"Avenida Geremário Dantas 148 Sala 203, Jacarepaguá";"Rio de Janeiro";"RJ";"22735-015";;"Brasil";;;;;;;;;;;"Michel Boiteux de Oliveira";;;;;;;0;;"CBJJ";;"BR";5446
"Academia Betânia de Artes Marciais";;" + 55 21 3555-3568";"Estrada Manoel Nogueira de Sá 320, Sulacap";"Rio de Janeiro";"RJ";"21745-290";;"Brasil";"Academia Betânia de Artes Marciais - Onde se ensina os valores das Artes Marciais, além das técnicas. Disciplina, honra e qualidade.";;;;;;;;;;"Hermann Oliveira dos Santos";;"academiabetaniadeartesmarciais@gmail.com";"https://www.facebook.com/AcademiaBetania/";;;;0;;"CBJJ";;"BR";2155
"Academia Reação JJ";;;"Rua Bertha Lutz, 84";"Rio de Janeiro";"RJ";"22450-290";;"Brasil";;;;;;;;;;;"Paulo Roberto da Silva Caruso";;;;;;;0;;"CBJJ";;"BR";559
"Ata Jiu-Jitsu";;;"Estrada do Engenho Novo, 1580";"Rio de Janeiro";"RJ";"21635-002";;"Brasil";"Equipe Jiu-Jitsu liderada e ministrada pelo mestre Aldemir Tavares.";;;;;;;;;;"Aldemir Tavares Roza";;"equipe.ata@gmail.com";"https://www.facebook.com/Equipe-ATA-Jiujitsu-473553109352189/";;;;0;;"CBJJ";;"BR";86
"Belsito BJJ";;;"Rua Padre Champagnat n: 44, Bairro: Vila Isabel";"Rio de Janeiro";"RJ";"20540-114";;"Brasil";;;;;;;;;;;"Joao Henrique Belsito de Almeida";;;;;;;0;;"CBJJ";;"BR";7383
"Bolão Jiu-Jitsu";"https://bolao-jiu-jitsu.negocio.site/";" + 55 21 99987-1740";"Avenida das Américas 2000, Barra da Tijuca";"Rio de Janeiro";"RJ";"22640-101";;"Brasil";;;;;;;;;;;"Sergio Augusto de Jesus R. Souza";;"sergiobolao@gmail.com";"https://www.facebook.com/carlsongraciebarra/";"https://www.youtube.com/user/BolaoSergio";"https://youtu.be/eA3w0W_mO84";;0;;"CBJJ";;"BR";141
"Braga Jiu-Jitsu Brasil";;" + 55 21 96414-6566";"Av. Prefeito Dulcídio Cardoso, 3007 Barra da Tijuca";"Rio de Janeiro";"RJ";"22630-021";;"Brasil";;;;;;;;;;;"Wander Braga Corrêa da Costa";;"wanderbragabjj@gmail.com";"https://www.facebook.com/wanderbragabjj/";"https://www.youtube.com/c/BragaJiuJitsu";"https://youtu.be/HODCrhwEaew";;0;;"CBJJ";;"BR";2694
"Burlamaqui Team BJJ";;;"Rua Dr. Nunes, 34 Aptº 101, Olaria";"Rio de Janeiro";"RJ";"21021-370";;"Brasil";;;;;;;;;;;"Rodrigo Burlamaqui";;;;;;;0;;"CBJJ";;"BR";5576
"Carlson Gracie Clube";"http://www.academiacarlsongracie.com.br/";" + 55 21 98121-5977";"Rua Figueiredo de Magalhães, 414 - 3° andar - Copacabana";"Rio de Janeiro";"RJ";"22031-010";;"Brasil";"As aulas são ministradas pelo próprio Mestre Marcelo Saporito para adultos e crianças, de qualquer sexo e idade, começando com aquecimento, seguido de novas posições ministradas pelo Mestre e, finalmente, um treino livre com o intuito de fixar as posições passadas no começo da aula, bem como aprimorar as habilidades técnicas e físicas de cada aluno. Os treinos são realizados com atletas de diferentes graduações para que o aprendizado possa ser repassado dos mais graduados para os menos graduados, num ciclo constante de aprendizado e troca de experiência.";;;;;;;;;"Mon-Fri: 7:00am-11:00pm";"Marcelo Saporito";;"marcelosaporitobjj@hotmail.com";"https://www.facebook.com/saporitobjj/";"https://www.youtube.com/channel/UCnCml6XLY_ryqmCQy4_r_Lw";"https://youtu.be/KBrW-oyIVvM";;0;;"CBJJ";;"BR";202
